G21
G90
M5

; QR text: HELLO COREXY
; stroke paths: 37

; QR connected horizontal zigzag fill 1
G0 X4 Y4.175 F1800
M3
G4 P80
G1 X11 Y4.175 F600
G1 X11 Y4.525 F600
G1 X4 Y4.525 F600
G1 X4 Y4.875 F600
G1 X11 Y4.875 F600
G1 X4.5 Y4.875 F600
G1 X4.5 Y5.175 F600
G1 X4 Y5.175 F600
G1 X5 Y5.175 F600
G1 X5 Y5.525 F600
G1 X4 Y5.525 F600
G1 X4 Y5.875 F600
G1 X5 Y5.875 F600
G1 X4.5 Y5.875 F600
G1 X4.5 Y6.175 F600
G1 X4 Y6.175 F600
G1 X5 Y6.175 F600
G1 X5 Y6.525 F600
G1 X4 Y6.525 F600
G1 X4 Y6.875 F600
G1 X5 Y6.875 F600
G1 X4.5 Y6.875 F600
G1 X4.5 Y7.175 F600
G1 X4 Y7.175 F600
G1 X5 Y7.175 F600
G1 X5 Y7.525 F600
G1 X4 Y7.525 F600
G1 X4 Y7.875 F600
G1 X5 Y7.875 F600
G1 X4.5 Y7.875 F600
G1 X4.5 Y8.175 F600
G1 X4 Y8.175 F600
G1 X5 Y8.175 F600
G1 X5 Y8.525 F600
G1 X4 Y8.525 F600
G1 X4 Y8.875 F600
G1 X5 Y8.875 F600
G1 X4.5 Y8.875 F600
G1 X4.5 Y9.175 F600
G1 X4 Y9.175 F600
G1 X5 Y9.175 F600
G1 X5 Y9.525 F600
G1 X4 Y9.525 F600
G1 X4 Y9.875 F600
G1 X5 Y9.875 F600
G1 X4.5 Y9.875 F600
G1 X4.5 Y10.175 F600
G1 X4 Y10.175 F600
G1 X11 Y10.175 F600
G1 X11 Y10.525 F600
G1 X4 Y10.525 F600
G1 X4 Y10.875 F600
G1 X11 Y10.875 F600
G1 X10.5 Y10.875 F600
G1 X10.5 Y9.175 F600
G1 X10 Y9.175 F600
G1 X11 Y9.175 F600
G1 X11 Y9.525 F600
G1 X10 Y9.525 F600
G1 X10 Y9.875 F600
G1 X11 Y9.875 F600
G1 X10.5 Y9.875 F600
G1 X10.5 Y8.175 F600
G1 X10 Y8.175 F600
G1 X11 Y8.175 F600
G1 X11 Y8.525 F600
G1 X10 Y8.525 F600
G1 X10 Y8.875 F600
G1 X11 Y8.875 F600
G1 X10.5 Y8.875 F600
G1 X10.5 Y7.175 F600
G1 X10 Y7.175 F600
G1 X11 Y7.175 F600
G1 X11 Y7.525 F600
G1 X10 Y7.525 F600
G1 X10 Y7.875 F600
G1 X11 Y7.875 F600
G1 X10.5 Y7.875 F600
G1 X10.5 Y6.175 F600
G1 X10 Y6.175 F600
G1 X11 Y6.175 F600
G1 X11 Y6.525 F600
G1 X10 Y6.525 F600
G1 X10 Y6.875 F600
G1 X11 Y6.875 F600
G1 X10.5 Y6.875 F600
G1 X10.5 Y5.175 F600
G1 X10 Y5.175 F600
G1 X11 Y5.175 F600
G1 X11 Y5.525 F600
G1 X10 Y5.525 F600
G1 X10 Y5.875 F600
G1 X11 Y5.875 F600
G1 X10.5 Y5.875 F600
G1 X10.5 Y6.875 F600
G1 X10.5 Y7.875 F600
G1 X10.5 Y8.875 F600
G1 X10.5 Y9.875 F600
G1 X10.5 Y10.875 F600
G1 X4.5 Y10.875 F600
G1 X4.5 Y9.875 F600
G1 X4.5 Y8.875 F600
G1 X4.5 Y7.875 F600
G1 X4.5 Y6.875 F600
G1 X4.5 Y5.875 F600
G1 X4.5 Y4.875 F600
M5
G4 P80

; QR connected horizontal zigzag fill 2
G0 X18 Y4.175 F1800
M3
G4 P80
G1 X25 Y4.175 F600
G1 X25 Y4.525 F600
G1 X18 Y4.525 F600
G1 X18 Y4.875 F600
G1 X25 Y4.875 F600
G1 X18.5 Y4.875 F600
G1 X18.5 Y5.175 F600
G1 X18 Y5.175 F600
G1 X19 Y5.175 F600
G1 X19 Y5.525 F600
G1 X18 Y5.525 F600
G1 X18 Y5.875 F600
G1 X19 Y5.875 F600
G1 X18.5 Y5.875 F600
G1 X18.5 Y6.175 F600
G1 X18 Y6.175 F600
G1 X19 Y6.175 F600
G1 X19 Y6.525 F600
G1 X18 Y6.525 F600
G1 X18 Y6.875 F600
G1 X19 Y6.875 F600
G1 X18.5 Y6.875 F600
G1 X18.5 Y7.175 F600
G1 X18 Y7.175 F600
G1 X19 Y7.175 F600
G1 X19 Y7.525 F600
G1 X18 Y7.525 F600
G1 X18 Y7.875 F600
G1 X19 Y7.875 F600
G1 X18.5 Y7.875 F600
G1 X18.5 Y8.175 F600
G1 X18 Y8.175 F600
G1 X19 Y8.175 F600
G1 X19 Y8.525 F600
G1 X18 Y8.525 F600
G1 X18 Y8.875 F600
G1 X19 Y8.875 F600
G1 X18.5 Y8.875 F600
G1 X18.5 Y9.175 F600
G1 X18 Y9.175 F600
G1 X19 Y9.175 F600
G1 X19 Y9.525 F600
G1 X18 Y9.525 F600
G1 X18 Y9.875 F600
G1 X19 Y9.875 F600
G1 X18.5 Y9.875 F600
G1 X18.5 Y10.175 F600
G1 X18 Y10.175 F600
G1 X25 Y10.175 F600
G1 X25 Y10.525 F600
G1 X18 Y10.525 F600
G1 X18 Y10.875 F600
G1 X25 Y10.875 F600
G1 X24.5 Y10.875 F600
G1 X24.5 Y9.175 F600
G1 X24 Y9.175 F600
G1 X25 Y9.175 F600
G1 X25 Y9.525 F600
G1 X24 Y9.525 F600
G1 X24 Y9.875 F600
G1 X25 Y9.875 F600
G1 X24.5 Y9.875 F600
G1 X24.5 Y8.175 F600
G1 X24 Y8.175 F600
G1 X25 Y8.175 F600
G1 X25 Y8.525 F600
G1 X24 Y8.525 F600
G1 X24 Y8.875 F600
G1 X25 Y8.875 F600
G1 X24.5 Y8.875 F600
G1 X24.5 Y7.175 F600
G1 X24 Y7.175 F600
G1 X25 Y7.175 F600
G1 X25 Y7.525 F600
G1 X24 Y7.525 F600
G1 X24 Y7.875 F600
G1 X25 Y7.875 F600
G1 X24.5 Y7.875 F600
G1 X24.5 Y6.175 F600
G1 X24 Y6.175 F600
G1 X25 Y6.175 F600
G1 X25 Y6.525 F600
G1 X24 Y6.525 F600
G1 X24 Y6.875 F600
G1 X25 Y6.875 F600
G1 X24.5 Y6.875 F600
G1 X24.5 Y5.175 F600
G1 X24 Y5.175 F600
G1 X25 Y5.175 F600
G1 X25 Y5.525 F600
G1 X24 Y5.525 F600
G1 X24 Y5.875 F600
G1 X25 Y5.875 F600
G1 X24.5 Y5.875 F600
G1 X24.5 Y6.875 F600
G1 X24.5 Y7.875 F600
G1 X24.5 Y8.875 F600
G1 X24.5 Y9.875 F600
G1 X24.5 Y10.875 F600
G1 X18.5 Y10.875 F600
G1 X18.5 Y9.875 F600
G1 X18.5 Y8.875 F600
G1 X18.5 Y7.875 F600
G1 X18.5 Y6.875 F600
G1 X18.5 Y5.875 F600
G1 X18.5 Y4.875 F600
M5
G4 P80

; QR connected horizontal zigzag fill 3
G0 X15 Y5.175 F1800
M3
G4 P80
G1 X17 Y5.175 F600
G1 X17 Y5.525 F600
G1 X15 Y5.525 F600
G1 X15 Y5.875 F600
G1 X17 Y5.875 F600
M5
G4 P80

; QR connected horizontal zigzag fill 4
G0 X6 Y6.175 F1800
M3
G4 P80
G1 X9 Y6.175 F600
G1 X9 Y6.525 F600
G1 X6 Y6.525 F600
G1 X6 Y6.875 F600
G1 X9 Y6.875 F600
G1 X7.5 Y6.875 F600
G1 X7.5 Y7.175 F600
G1 X6 Y7.175 F600
G1 X9 Y7.175 F600
G1 X9 Y7.525 F600
G1 X6 Y7.525 F600
G1 X6 Y7.875 F600
G1 X9 Y7.875 F600
G1 X7.5 Y7.875 F600
G1 X7.5 Y8.175 F600
G1 X6 Y8.175 F600
G1 X9 Y8.175 F600
G1 X9 Y8.525 F600
G1 X6 Y8.525 F600
G1 X6 Y8.875 F600
G1 X9 Y8.875 F600
G1 X7.5 Y8.875 F600
G1 X7.5 Y7.875 F600
G1 X7.5 Y6.875 F600
M5
G4 P80

; QR connected horizontal zigzag fill 5
G0 X12 Y6.175 F1800
M3
G4 P80
G1 X14 Y6.175 F600
G1 X14 Y6.525 F600
G1 X12 Y6.525 F600
G1 X12 Y6.875 F600
G1 X14 Y6.875 F600
G1 X12.5 Y6.875 F600
G1 X12.5 Y7.175 F600
G1 X12 Y7.175 F600
G1 X13 Y7.175 F600
G1 X13 Y7.525 F600
G1 X12 Y7.525 F600
G1 X12 Y7.875 F600
G1 X13 Y7.875 F600
G1 X12.5 Y7.875 F600
G1 X12.5 Y8.175 F600
G1 X12 Y8.175 F600
G1 X14 Y8.175 F600
G1 X14 Y8.525 F600
G1 X12 Y8.525 F600
G1 X12 Y8.875 F600
G1 X14 Y8.875 F600
G1 X12.5 Y8.875 F600
G1 X12.5 Y9.175 F600
G1 X12 Y9.175 F600
G1 X13 Y9.175 F600
G1 X13 Y9.525 F600
G1 X12 Y9.525 F600
G1 X12 Y9.875 F600
G1 X13 Y9.875 F600
G1 X12.5 Y9.875 F600
G1 X12.5 Y10.175 F600
G1 X12 Y10.175 F600
G1 X13 Y10.175 F600
G1 X13 Y10.525 F600
G1 X12 Y10.525 F600
G1 X12 Y10.875 F600
G1 X13 Y10.875 F600
G1 X12.5 Y10.875 F600
G1 X12.5 Y11.175 F600
G1 X12 Y11.175 F600
G1 X13 Y11.175 F600
G1 X13 Y11.525 F600
G1 X12 Y11.525 F600
G1 X12 Y11.875 F600
G1 X13 Y11.875 F600
G1 X12.5 Y11.875 F600
G1 X12.5 Y10.875 F600
G1 X12.5 Y9.875 F600
G1 X12.5 Y8.875 F600
G1 X12.5 Y7.875 F600
G1 X12.5 Y6.875 F600
M5
G4 P80

; QR connected horizontal zigzag fill 6
G0 X20 Y6.175 F1800
M3
G4 P80
G1 X23 Y6.175 F600
G1 X23 Y6.525 F600
G1 X20 Y6.525 F600
G1 X20 Y6.875 F600
G1 X23 Y6.875 F600
G1 X21.5 Y6.875 F600
G1 X21.5 Y7.175 F600
G1 X20 Y7.175 F600
G1 X23 Y7.175 F600
G1 X23 Y7.525 F600
G1 X20 Y7.525 F600
G1 X20 Y7.875 F600
G1 X23 Y7.875 F600
G1 X21.5 Y7.875 F600
G1 X21.5 Y8.175 F600
G1 X20 Y8.175 F600
G1 X23 Y8.175 F600
G1 X23 Y8.525 F600
G1 X20 Y8.525 F600
G1 X20 Y8.875 F600
G1 X23 Y8.875 F600
G1 X21.5 Y8.875 F600
G1 X21.5 Y7.875 F600
G1 X21.5 Y6.875 F600
M5
G4 P80

; QR connected horizontal zigzag fill 7
G0 X14 Y7.175 F1800
M3
G4 P80
G1 X15 Y7.175 F600
G1 X15 Y7.525 F600
G1 X14 Y7.525 F600
G1 X14 Y7.875 F600
G1 X15 Y7.875 F600
M5
G4 P80

; QR connected horizontal zigzag fill 8
G0 X16 Y7.175 F1800
M3
G4 P80
G1 X17 Y7.175 F600
G1 X17 Y7.525 F600
G1 X16 Y7.525 F600
G1 X16 Y7.875 F600
G1 X17 Y7.875 F600
G1 X16.5 Y7.875 F600
G1 X16.5 Y8.175 F600
G1 X16 Y8.175 F600
G1 X17 Y8.175 F600
G1 X17 Y8.525 F600
G1 X16 Y8.525 F600
G1 X16 Y8.875 F600
G1 X17 Y8.875 F600
G1 X16.5 Y8.875 F600
G1 X16.5 Y7.875 F600
M5
G4 P80

; QR connected horizontal zigzag fill 9
G0 X15 Y9.175 F1800
M3
G4 P80
G1 X16 Y9.175 F600
G1 X16 Y9.525 F600
G1 X15 Y9.525 F600
G1 X15 Y9.875 F600
G1 X16 Y9.875 F600
M5
G4 P80

; QR connected horizontal zigzag fill 10
G0 X14 Y10.175 F1800
M3
G4 P80
G1 X15 Y10.175 F600
G1 X15 Y10.525 F600
G1 X14 Y10.525 F600
G1 X14 Y10.875 F600
G1 X15 Y10.875 F600
G1 X14.5 Y10.875 F600
G1 X14.5 Y11.175 F600
G1 X14 Y11.175 F600
G1 X15 Y11.175 F600
G1 X15 Y11.525 F600
G1 X14 Y11.525 F600
G1 X14 Y11.875 F600
G1 X15 Y11.875 F600
G1 X14.5 Y11.875 F600
G1 X14.5 Y10.875 F600
M5
G4 P80

; QR connected horizontal zigzag fill 11
G0 X16 Y10.175 F1800
M3
G4 P80
G1 X17 Y10.175 F600
G1 X17 Y10.525 F600
G1 X16 Y10.525 F600
G1 X16 Y10.875 F600
G1 X17 Y10.875 F600
M5
G4 P80

; QR connected horizontal zigzag fill 12
G0 X4 Y12.175 F1800
M3
G4 P80
G1 X5 Y12.175 F600
G1 X5 Y12.525 F600
G1 X4 Y12.525 F600
G1 X4 Y12.875 F600
G1 X5 Y12.875 F600
M5
G4 P80

; QR connected horizontal zigzag fill 13
G0 X6 Y12.175 F1800
M3
G4 P80
G1 X11 Y12.175 F600
G1 X11 Y12.525 F600
G1 X6 Y12.525 F600
G1 X6 Y12.875 F600
G1 X11 Y12.875 F600
M5
G4 P80

; QR connected horizontal zigzag fill 14
G0 X13 Y12.175 F1800
M3
G4 P80
G1 X14 Y12.175 F600
G1 X14 Y12.525 F600
G1 X13 Y12.525 F600
G1 X13 Y12.875 F600
G1 X14 Y12.875 F600
M5
G4 P80

; QR connected horizontal zigzag fill 15
G0 X15 Y12.175 F1800
M3
G4 P80
G1 X16 Y12.175 F600
G1 X16 Y12.525 F600
G1 X15 Y12.525 F600
G1 X15 Y12.875 F600
G1 X16 Y12.875 F600
G1 X15.5 Y12.875 F600
G1 X15.5 Y13.175 F600
G1 X14 Y13.175 F600
G1 X19 Y13.175 F600
G1 X19 Y13.525 F600
G1 X14 Y13.525 F600
G1 X14 Y13.875 F600
G1 X19 Y13.875 F600
G1 X18.5 Y13.875 F600
G1 X18.5 Y12.175 F600
G1 X18 Y12.175 F600
G1 X23 Y12.175 F600
G1 X23 Y12.525 F600
G1 X18 Y12.525 F600
G1 X18 Y12.875 F600
G1 X23 Y12.875 F600
G1 X21.5 Y12.875 F600
G1 X21.5 Y13.175 F600
G1 X20 Y13.175 F600
G1 X25 Y13.175 F600
G1 X25 Y13.525 F600
G1 X20 Y13.525 F600
G1 X20 Y13.875 F600
G1 X25 Y13.875 F600
G1 X21 Y13.875 F600
G1 X21 Y14.175 F600
G1 X22 Y14.175 F600
G1 X19 Y14.175 F600
G1 X19 Y14.525 F600
G1 X22 Y14.525 F600
G1 X22 Y14.875 F600
G1 X19 Y14.875 F600
G1 X21 Y14.875 F600
G1 X21 Y13.875 F600
G1 X24.5 Y13.875 F600
G1 X24.5 Y14.175 F600
G1 X24 Y14.175 F600
G1 X25 Y14.175 F600
G1 X25 Y14.525 F600
G1 X24 Y14.525 F600
G1 X24 Y14.875 F600
G1 X25 Y14.875 F600
G1 X24.5 Y14.875 F600
G1 X24.5 Y13.875 F600
G1 X21.5 Y13.875 F600
G1 X21.5 Y12.875 F600
G1 X18.5 Y12.875 F600
G1 X18.5 Y13.875 F600
G1 X17 Y13.875 F600
G1 X17 Y14.175 F600
G1 X16 Y14.175 F600
G1 X18 Y14.175 F600
G1 X18 Y14.525 F600
G1 X16 Y14.525 F600
G1 X16 Y14.875 F600
G1 X18 Y14.875 F600
G1 X17 Y14.875 F600
G1 X17 Y15.175 F600
G1 X15 Y15.175 F600
G1 X19 Y15.175 F600
G1 X19 Y15.525 F600
G1 X15 Y15.525 F600
G1 X15 Y15.875 F600
G1 X19 Y15.875 F600
G1 X16.5 Y15.875 F600
G1 X16.5 Y16.175 F600
G1 X16 Y16.175 F600
G1 X17 Y16.175 F600
G1 X17 Y16.525 F600
G1 X16 Y16.525 F600
G1 X16 Y16.875 F600
G1 X17 Y16.875 F600
G1 X16.5 Y16.875 F600
G1 X16.5 Y17.175 F600
G1 X16 Y17.175 F600
G1 X17 Y17.175 F600
G1 X17 Y17.525 F600
G1 X16 Y17.525 F600
G1 X16 Y17.875 F600
G1 X17 Y17.875 F600
G1 X16.5 Y17.875 F600
G1 X16.5 Y16.875 F600
G1 X16.5 Y15.875 F600
G1 X18.5 Y15.875 F600
G1 X18.5 Y16.175 F600
G1 X18 Y16.175 F600
G1 X19 Y16.175 F600
G1 X19 Y16.525 F600
G1 X18 Y16.525 F600
G1 X18 Y16.875 F600
G1 X19 Y16.875 F600
G1 X18.5 Y16.875 F600
G1 X18.5 Y15.875 F600
G1 X17 Y15.875 F600
G1 X17 Y14.875 F600
G1 X17 Y13.875 F600
G1 X15.5 Y13.875 F600
G1 X15.5 Y12.875 F600
M5
G4 P80

; QR connected horizontal zigzag fill 16
G0 X5 Y13.175 F1800
M3
G4 P80
G1 X6 Y13.175 F600
G1 X6 Y13.525 F600
G1 X5 Y13.525 F600
G1 X5 Y13.875 F600
G1 X6 Y13.875 F600
M5
G4 P80

; QR connected horizontal zigzag fill 17
G0 X11 Y13.175 F1800
M3
G4 P80
G1 X12 Y13.175 F600
G1 X12 Y13.525 F600
G1 X11 Y13.525 F600
G1 X11 Y13.875 F600
G1 X12 Y13.875 F600
M5
G4 P80

; QR connected horizontal zigzag fill 18
G0 X4 Y14.175 F1800
M3
G4 P80
G1 X5 Y14.175 F600
G1 X5 Y14.525 F600
G1 X4 Y14.525 F600
G1 X4 Y14.875 F600
G1 X5 Y14.875 F600
M5
G4 P80

; QR connected horizontal zigzag fill 19
G0 X6 Y14.175 F1800
M3
G4 P80
G1 X11 Y14.175 F600
G1 X11 Y14.525 F600
G1 X6 Y14.525 F600
G1 X6 Y14.875 F600
G1 X11 Y14.875 F600
G1 X8.5 Y14.875 F600
G1 X8.5 Y15.175 F600
G1 X7 Y15.175 F600
G1 X10 Y15.175 F600
G1 X10 Y15.525 F600
G1 X7 Y15.525 F600
G1 X7 Y15.875 F600
G1 X10 Y15.875 F600
G1 X8.5 Y15.875 F600
G1 X8.5 Y14.875 F600
M5
G4 P80

; QR connected horizontal zigzag fill 20
G0 X12 Y14.175 F1800
M3
G4 P80
G1 X13 Y14.175 F600
G1 X13 Y14.525 F600
G1 X12 Y14.525 F600
G1 X12 Y14.875 F600
G1 X13 Y14.875 F600
G1 X12.5 Y14.875 F600
G1 X12.5 Y15.175 F600
G1 X12 Y15.175 F600
G1 X13 Y15.175 F600
G1 X13 Y15.525 F600
G1 X12 Y15.525 F600
G1 X12 Y15.875 F600
G1 X13 Y15.875 F600
G1 X12.5 Y15.875 F600
G1 X12.5 Y14.875 F600
M5
G4 P80

; QR connected horizontal zigzag fill 21
G0 X5 Y15.175 F1800
M3
G4 P80
G1 X6 Y15.175 F600
G1 X6 Y15.525 F600
G1 X5 Y15.525 F600
G1 X5 Y15.875 F600
G1 X6 Y15.875 F600
G1 X5.5 Y15.875 F600
G1 X5.5 Y16.175 F600
G1 X5 Y16.175 F600
G1 X7 Y16.175 F600
G1 X7 Y16.525 F600
G1 X5 Y16.525 F600
G1 X5 Y16.875 F600
G1 X7 Y16.875 F600
G1 X5.5 Y16.875 F600
G1 X5.5 Y15.875 F600
M5
G4 P80

; QR connected horizontal zigzag fill 22
G0 X10 Y16.175 F1800
M3
G4 P80
G1 X12 Y16.175 F600
G1 X12 Y16.525 F600
G1 X10 Y16.525 F600
G1 X10 Y16.875 F600
G1 X12 Y16.875 F600
M5
G4 P80

; QR connected horizontal zigzag fill 23
G0 X14 Y16.175 F1800
M3
G4 P80
G1 X15 Y16.175 F600
G1 X15 Y16.525 F600
G1 X14 Y16.525 F600
G1 X14 Y16.875 F600
G1 X15 Y16.875 F600
M5
G4 P80

; QR connected horizontal zigzag fill 24
G0 X20 Y16.175 F1800
M3
G4 P80
G1 X21 Y16.175 F600
G1 X21 Y16.525 F600
G1 X20 Y16.525 F600
G1 X20 Y16.875 F600
G1 X21 Y16.875 F600
M5
G4 P80

; QR connected horizontal zigzag fill 25
G0 X22 Y16.175 F1800
M3
G4 P80
G1 X23 Y16.175 F600
G1 X23 Y16.525 F600
G1 X22 Y16.525 F600
G1 X22 Y16.875 F600
G1 X23 Y16.875 F600
M5
G4 P80

; QR connected horizontal zigzag fill 26
G0 X12 Y17.175 F1800
M3
G4 P80
G1 X14 Y17.175 F600
G1 X14 Y17.525 F600
G1 X12 Y17.525 F600
G1 X12 Y17.875 F600
G1 X14 Y17.875 F600
G1 X13.5 Y17.875 F600
G1 X13.5 Y18.175 F600
G1 X13 Y18.175 F600
G1 X14 Y18.175 F600
G1 X14 Y18.525 F600
G1 X13 Y18.525 F600
G1 X13 Y18.875 F600
G1 X14 Y18.875 F600
G1 X13.5 Y18.875 F600
G1 X13.5 Y19.175 F600
G1 X14 Y19.175 F600
G1 X12 Y19.175 F600
G1 X12 Y19.525 F600
G1 X14 Y19.525 F600
G1 X14 Y19.875 F600
G1 X12 Y19.875 F600
G1 X13 Y19.875 F600
G1 X13 Y20.175 F600
G1 X12 Y20.175 F600
G1 X16 Y20.175 F600
G1 X16 Y20.525 F600
G1 X12 Y20.525 F600
G1 X12 Y20.875 F600
G1 X16 Y20.875 F600
G1 X12.5 Y20.875 F600
G1 X12.5 Y21.175 F600
G1 X12 Y21.175 F600
G1 X13 Y21.175 F600
G1 X13 Y21.525 F600
G1 X12 Y21.525 F600
G1 X12 Y21.875 F600
G1 X13 Y21.875 F600
G1 X12.5 Y21.875 F600
G1 X12.5 Y22.175 F600
G1 X12 Y22.175 F600
G1 X14 Y22.175 F600
G1 X14 Y22.525 F600
G1 X12 Y22.525 F600
G1 X12 Y22.875 F600
G1 X14 Y22.875 F600
G1 X12.5 Y22.875 F600
G1 X12.5 Y21.875 F600
G1 X12.5 Y20.875 F600
G1 X15 Y20.875 F600
G1 X15 Y21.175 F600
G1 X14 Y21.175 F600
G1 X23 Y21.175 F600
G1 X23 Y21.525 F600
G1 X14 Y21.525 F600
G1 X14 Y21.875 F600
G1 X23 Y21.875 F600
G1 X22 Y21.875 F600
G1 X22 Y20.175 F600
G1 X21 Y20.175 F600
G1 X24 Y20.175 F600
G1 X24 Y20.525 F600
G1 X21 Y20.525 F600
G1 X21 Y20.875 F600
G1 X24 Y20.875 F600
G1 X22.5 Y20.875 F600
G1 X22.5 Y19.175 F600
G1 X22 Y19.175 F600
G1 X23 Y19.175 F600
G1 X23 Y19.525 F600
G1 X22 Y19.525 F600
G1 X22 Y19.875 F600
G1 X23 Y19.875 F600
G1 X22.5 Y19.875 F600
G1 X22.5 Y18.175 F600
G1 X23 Y18.175 F600
G1 X20 Y18.175 F600
G1 X20 Y18.525 F600
G1 X23 Y18.525 F600
G1 X23 Y18.875 F600
G1 X20 Y18.875 F600
G1 X21.5 Y18.875 F600
G1 X21.5 Y17.175 F600
G1 X21 Y17.175 F600
G1 X22 Y17.175 F600
G1 X22 Y17.525 F600
G1 X21 Y17.525 F600
G1 X21 Y17.875 F600
G1 X22 Y17.875 F600
G1 X21.5 Y17.875 F600
G1 X21.5 Y18.875 F600
G1 X22.5 Y18.875 F600
G1 X22.5 Y19.875 F600
G1 X22.5 Y20.875 F600
G1 X22 Y20.875 F600
G1 X22 Y21.875 F600
G1 X16.5 Y21.875 F600
G1 X16.5 Y22.175 F600
G1 X16 Y22.175 F600
G1 X17 Y22.175 F600
G1 X17 Y22.525 F600
G1 X16 Y22.525 F600
G1 X16 Y22.875 F600
G1 X17 Y22.875 F600
G1 X16.5 Y22.875 F600
G1 X16.5 Y23.175 F600
G1 X14 Y23.175 F600
G1 X19 Y23.175 F600
G1 X19 Y23.525 F600
G1 X14 Y23.525 F600
G1 X14 Y23.875 F600
G1 X19 Y23.875 F600
G1 X18.5 Y23.875 F600
G1 X18.5 Y22.175 F600
G1 X18 Y22.175 F600
G1 X22 Y22.175 F600
G1 X22 Y22.525 F600
G1 X18 Y22.525 F600
G1 X18 Y22.875 F600
G1 X22 Y22.875 F600
G1 X18.5 Y22.875 F600
G1 X18.5 Y23.875 F600
G1 X14.5 Y23.875 F600
G1 X14.5 Y24.175 F600
G1 X14 Y24.175 F600
G1 X15 Y24.175 F600
G1 X15 Y24.525 F600
G1 X14 Y24.525 F600
G1 X14 Y24.875 F600
G1 X15 Y24.875 F600
G1 X14.5 Y24.875 F600
G1 X14.5 Y23.875 F600
G1 X16.5 Y23.875 F600
G1 X16.5 Y24.175 F600
G1 X16 Y24.175 F600
G1 X17 Y24.175 F600
G1 X17 Y24.525 F600
G1 X16 Y24.525 F600
G1 X16 Y24.875 F600
G1 X17 Y24.875 F600
G1 X16.5 Y24.875 F600
G1 X16.5 Y23.875 F600
G1 X16.5 Y22.875 F600
G1 X16.5 Y21.875 F600
G1 X15 Y21.875 F600
G1 X15 Y20.875 F600
G1 X13 Y20.875 F600
G1 X13 Y19.875 F600
G1 X13.5 Y19.875 F600
G1 X13.5 Y18.875 F600
G1 X13.5 Y17.875 F600
M5
G4 P80

; QR connected horizontal zigzag fill 27
G0 X19 Y17.175 F1800
M3
G4 P80
G1 X20 Y17.175 F600
G1 X20 Y17.525 F600
G1 X19 Y17.525 F600
G1 X19 Y17.875 F600
G1 X20 Y17.875 F600
M5
G4 P80

; QR connected horizontal zigzag fill 28
G0 X23 Y17.175 F1800
M3
G4 P80
G1 X25 Y17.175 F600
G1 X25 Y17.525 F600
G1 X23 Y17.525 F600
G1 X23 Y17.875 F600
G1 X25 Y17.875 F600
M5
G4 P80

; QR connected horizontal zigzag fill 29
G0 X4 Y18.175 F1800
M3
G4 P80
G1 X11 Y18.175 F600
G1 X11 Y18.525 F600
G1 X4 Y18.525 F600
G1 X4 Y18.875 F600
G1 X11 Y18.875 F600
G1 X4.5 Y18.875 F600
G1 X4.5 Y19.175 F600
G1 X4 Y19.175 F600
G1 X5 Y19.175 F600
G1 X5 Y19.525 F600
G1 X4 Y19.525 F600
G1 X4 Y19.875 F600
G1 X5 Y19.875 F600
G1 X4.5 Y19.875 F600
G1 X4.5 Y20.175 F600
G1 X4 Y20.175 F600
G1 X5 Y20.175 F600
G1 X5 Y20.525 F600
G1 X4 Y20.525 F600
G1 X4 Y20.875 F600
G1 X5 Y20.875 F600
G1 X4.5 Y20.875 F600
G1 X4.5 Y21.175 F600
G1 X4 Y21.175 F600
G1 X5 Y21.175 F600
G1 X5 Y21.525 F600
G1 X4 Y21.525 F600
G1 X4 Y21.875 F600
G1 X5 Y21.875 F600
G1 X4.5 Y21.875 F600
G1 X4.5 Y22.175 F600
G1 X4 Y22.175 F600
G1 X5 Y22.175 F600
G1 X5 Y22.525 F600
G1 X4 Y22.525 F600
G1 X4 Y22.875 F600
G1 X5 Y22.875 F600
G1 X4.5 Y22.875 F600
G1 X4.5 Y23.175 F600
G1 X4 Y23.175 F600
G1 X5 Y23.175 F600
G1 X5 Y23.525 F600
G1 X4 Y23.525 F600
G1 X4 Y23.875 F600
G1 X5 Y23.875 F600
G1 X4.5 Y23.875 F600
G1 X4.5 Y24.175 F600
G1 X4 Y24.175 F600
G1 X11 Y24.175 F600
G1 X11 Y24.525 F600
G1 X4 Y24.525 F600
G1 X4 Y24.875 F600
G1 X11 Y24.875 F600
G1 X10.5 Y24.875 F600
G1 X10.5 Y23.175 F600
G1 X10 Y23.175 F600
G1 X11 Y23.175 F600
G1 X11 Y23.525 F600
G1 X10 Y23.525 F600
G1 X10 Y23.875 F600
G1 X11 Y23.875 F600
G1 X10.5 Y23.875 F600
G1 X10.5 Y22.175 F600
G1 X10 Y22.175 F600
G1 X11 Y22.175 F600
G1 X11 Y22.525 F600
G1 X10 Y22.525 F600
G1 X10 Y22.875 F600
G1 X11 Y22.875 F600
G1 X10.5 Y22.875 F600
G1 X10.5 Y21.175 F600
G1 X10 Y21.175 F600
G1 X11 Y21.175 F600
G1 X11 Y21.525 F600
G1 X10 Y21.525 F600
G1 X10 Y21.875 F600
G1 X11 Y21.875 F600
G1 X10.5 Y21.875 F600
G1 X10.5 Y20.175 F600
G1 X10 Y20.175 F600
G1 X11 Y20.175 F600
G1 X11 Y20.525 F600
G1 X10 Y20.525 F600
G1 X10 Y20.875 F600
G1 X11 Y20.875 F600
G1 X10.5 Y20.875 F600
G1 X10.5 Y19.175 F600
G1 X10 Y19.175 F600
G1 X11 Y19.175 F600
G1 X11 Y19.525 F600
G1 X10 Y19.525 F600
G1 X10 Y19.875 F600
G1 X11 Y19.875 F600
G1 X10.5 Y19.875 F600
G1 X10.5 Y20.875 F600
G1 X10.5 Y21.875 F600
G1 X10.5 Y22.875 F600
G1 X10.5 Y23.875 F600
G1 X10.5 Y24.875 F600
G1 X4.5 Y24.875 F600
G1 X4.5 Y23.875 F600
G1 X4.5 Y22.875 F600
G1 X4.5 Y21.875 F600
G1 X4.5 Y20.875 F600
G1 X4.5 Y19.875 F600
G1 X4.5 Y18.875 F600
M5
G4 P80

; QR connected horizontal zigzag fill 30
G0 X15 Y18.175 F1800
M3
G4 P80
G1 X16 Y18.175 F600
G1 X16 Y18.525 F600
G1 X15 Y18.525 F600
G1 X15 Y18.875 F600
G1 X16 Y18.875 F600
M5
G4 P80

; QR connected horizontal zigzag fill 31
G0 X19 Y19.175 F1800
M3
G4 P80
G1 X20 Y19.175 F600
G1 X20 Y19.525 F600
G1 X19 Y19.525 F600
G1 X19 Y19.875 F600
G1 X20 Y19.875 F600
M5
G4 P80

; QR connected horizontal zigzag fill 32
G0 X24 Y19.175 F1800
M3
G4 P80
G1 X25 Y19.175 F600
G1 X25 Y19.525 F600
G1 X24 Y19.525 F600
G1 X24 Y19.875 F600
G1 X25 Y19.875 F600
M5
G4 P80

; QR connected horizontal zigzag fill 33
G0 X6 Y20.175 F1800
M3
G4 P80
G1 X9 Y20.175 F600
G1 X9 Y20.525 F600
G1 X6 Y20.525 F600
G1 X6 Y20.875 F600
G1 X9 Y20.875 F600
G1 X7.5 Y20.875 F600
G1 X7.5 Y21.175 F600
G1 X6 Y21.175 F600
G1 X9 Y21.175 F600
G1 X9 Y21.525 F600
G1 X6 Y21.525 F600
G1 X6 Y21.875 F600
G1 X9 Y21.875 F600
G1 X7.5 Y21.875 F600
G1 X7.5 Y22.175 F600
G1 X6 Y22.175 F600
G1 X9 Y22.175 F600
G1 X9 Y22.525 F600
G1 X6 Y22.525 F600
G1 X6 Y22.875 F600
G1 X9 Y22.875 F600
G1 X7.5 Y22.875 F600
G1 X7.5 Y21.875 F600
G1 X7.5 Y20.875 F600
M5
G4 P80

; QR connected horizontal zigzag fill 34
G0 X22 Y23.175 F1800
M3
G4 P80
G1 X23 Y23.175 F600
G1 X23 Y23.525 F600
G1 X22 Y23.525 F600
G1 X22 Y23.875 F600
G1 X23 Y23.875 F600
G1 X22.5 Y23.875 F600
G1 X22.5 Y24.175 F600
G1 X23 Y24.175 F600
G1 X21 Y24.175 F600
G1 X21 Y24.525 F600
G1 X23 Y24.525 F600
G1 X23 Y24.875 F600
G1 X21 Y24.875 F600
G1 X22.5 Y24.875 F600
G1 X22.5 Y23.875 F600
M5
G4 P80

; QR connected horizontal zigzag fill 35
G0 X24 Y23.175 F1800
M3
G4 P80
G1 X25 Y23.175 F600
G1 X25 Y23.525 F600
G1 X24 Y23.525 F600
G1 X24 Y23.875 F600
G1 X25 Y23.875 F600
M5
G4 P80

; QR connected horizontal zigzag fill 36
G0 X12 Y24.175 F1800
M3
G4 P80
G1 X13 Y24.175 F600
G1 X13 Y24.525 F600
G1 X12 Y24.525 F600
G1 X12 Y24.875 F600
G1 X13 Y24.875 F600
M5
G4 P80

; QR connected horizontal zigzag fill 37
G0 X19 Y24.175 F1800
M3
G4 P80
G1 X20 Y24.175 F600
G1 X20 Y24.525 F600
G1 X19 Y24.525 F600
G1 X19 Y24.875 F600
G1 X20 Y24.875 F600
M5
G4 P80

M5
