G21
G90
M5

; Six concentric squares centered at X27.500 Y27.500.
; Bounds: X3.500..51.500, Y3.500..51.500.
; Sides: 48, 40, 32, 24, 16, 8 mm.
; Send with serial_send.py --gcode, preferably with --job-lifecycle.

; square side 48
G0 X3.500 Y3.500 F8000
M3
G4 P80
G1 X51.500 Y3.500 F3000
G1 X51.500 Y51.500 F3000
G1 X3.500 Y51.500 F3000
G1 X3.500 Y3.500 F3000
M5
G4 P80

; square side 40
G0 X7.500 Y7.500 F8000
M3
G4 P80
G1 X47.500 Y7.500 F3000
G1 X47.500 Y47.500 F3000
G1 X7.500 Y47.500 F3000
G1 X7.500 Y7.500 F3000
M5
G4 P80

; square side 32
G0 X11.500 Y11.500 F8000
M3
G4 P80
G1 X43.500 Y11.500 F3000
G1 X43.500 Y43.500 F3000
G1 X11.500 Y43.500 F3000
G1 X11.500 Y11.500 F3000
M5
G4 P80

; square side 24
G0 X15.500 Y15.500 F8000
M3
G4 P80
G1 X39.500 Y15.500 F3000
G1 X39.500 Y39.500 F3000
G1 X15.500 Y39.500 F3000
G1 X15.500 Y15.500 F3000
M5
G4 P80

; square side 16
G0 X19.500 Y19.500 F8000
M3
G4 P80
G1 X35.500 Y19.500 F3000
G1 X35.500 Y35.500 F3000
G1 X19.500 Y35.500 F3000
G1 X19.500 Y19.500 F3000
M5
G4 P80

; square side 8
G0 X23.500 Y23.500 F8000
M3
G4 P80
G1 X31.500 Y23.500 F3000
G1 X31.500 Y31.500 F3000
G1 X23.500 Y31.500 F3000
G1 X23.500 Y23.500 F3000
M5
G4 P80

M5
