G21
G90
M5

; 5mm corridor maze, 12x11 cells, full 60x55mm area.
; START: left opening near X0 Y2.5, marked S.
; GOAL: right opening near X60 Y52.5, marked G.

G0 X0.000 Y0.000 F8000
M3
G4 P80
G1 X60.000 Y0.000 F3000
M5
G4 P40
G0 X0.000 Y5.000 F8000
M3
G4 P80
G1 X5.000 Y5.000 F3000
M5
G4 P40
G0 X15.000 Y5.000 F8000
M3
G4 P80
G1 X30.000 Y5.000 F3000
M5
G4 P40
G0 X5.000 Y10.000 F8000
M3
G4 P80
G1 X10.000 Y10.000 F3000
M5
G4 P40
G0 X25.000 Y10.000 F8000
M3
G4 P80
G1 X35.000 Y10.000 F3000
M5
G4 P40
G0 X45.000 Y10.000 F8000
M3
G4 P80
G1 X55.000 Y10.000 F3000
M5
G4 P40
G0 X5.000 Y15.000 F8000
M3
G4 P80
G1 X20.000 Y15.000 F3000
M5
G4 P40
G0 X30.000 Y15.000 F8000
M3
G4 P80
G1 X50.000 Y15.000 F3000
M5
G4 P40
G0 X0.000 Y20.000 F8000
M3
G4 P80
G1 X5.000 Y20.000 F3000
M5
G4 P40
G0 X25.000 Y20.000 F8000
M3
G4 P80
G1 X30.000 Y20.000 F3000
M5
G4 P40
G0 X40.000 Y20.000 F8000
M3
G4 P80
G1 X45.000 Y20.000 F3000
M5
G4 P40
G0 X5.000 Y25.000 F8000
M3
G4 P80
G1 X15.000 Y25.000 F3000
M5
G4 P40
G0 X30.000 Y25.000 F8000
M3
G4 P80
G1 X40.000 Y25.000 F3000
M5
G4 P40
G0 X45.000 Y25.000 F8000
M3
G4 P80
G1 X50.000 Y25.000 F3000
M5
G4 P40
G0 X5.000 Y30.000 F8000
M3
G4 P80
G1 X10.000 Y30.000 F3000
M5
G4 P40
G0 X20.000 Y30.000 F8000
M3
G4 P80
G1 X30.000 Y30.000 F3000
M5
G4 P40
G0 X40.000 Y30.000 F8000
M3
G4 P80
G1 X45.000 Y30.000 F3000
M5
G4 P40
G0 X50.000 Y30.000 F8000
M3
G4 P80
G1 X55.000 Y30.000 F3000
M5
G4 P40
G0 X0.000 Y35.000 F8000
M3
G4 P80
G1 X5.000 Y35.000 F3000
M5
G4 P40
G0 X10.000 Y35.000 F8000
M3
G4 P80
G1 X15.000 Y35.000 F3000
M5
G4 P40
G0 X25.000 Y35.000 F8000
M3
G4 P80
G1 X40.000 Y35.000 F3000
M5
G4 P40
G0 X55.000 Y35.000 F8000
M3
G4 P80
G1 X60.000 Y35.000 F3000
M5
G4 P40
G0 X5.000 Y40.000 F8000
M3
G4 P80
G1 X10.000 Y40.000 F3000
M5
G4 P40
G0 X15.000 Y40.000 F8000
M3
G4 P80
G1 X25.000 Y40.000 F3000
M5
G4 P40
G0 X40.000 Y40.000 F8000
M3
G4 P80
G1 X45.000 Y40.000 F3000
M5
G4 P40
G0 X50.000 Y40.000 F8000
M3
G4 P80
G1 X55.000 Y40.000 F3000
M5
G4 P40
G0 X10.000 Y45.000 F8000
M3
G4 P80
G1 X15.000 Y45.000 F3000
M5
G4 P40
G0 X30.000 Y45.000 F8000
M3
G4 P80
G1 X35.000 Y45.000 F3000
M5
G4 P40
G0 X40.000 Y45.000 F8000
M3
G4 P80
G1 X50.000 Y45.000 F3000
M5
G4 P40
G0 X15.000 Y50.000 F8000
M3
G4 P80
G1 X20.000 Y50.000 F3000
M5
G4 P40
G0 X25.000 Y50.000 F8000
M3
G4 P80
G1 X30.000 Y50.000 F3000
M5
G4 P40
G0 X35.000 Y50.000 F8000
M3
G4 P80
G1 X45.000 Y50.000 F3000
M5
G4 P40
G0 X50.000 Y50.000 F8000
M3
G4 P80
G1 X55.000 Y50.000 F3000
M5
G4 P40
G0 X0.000 Y55.000 F8000
M3
G4 P80
G1 X60.000 Y55.000 F3000
M5
G4 P40
G0 X0.000 Y5.000 F8000
M3
G4 P80
G1 X0.000 Y55.000 F3000
M5
G4 P40
G0 X5.000 Y10.000 F8000
M3
G4 P80
G1 X5.000 Y15.000 F3000
M5
G4 P40
G0 X5.000 Y20.000 F8000
M3
G4 P80
G1 X5.000 Y25.000 F3000
M5
G4 P40
G0 X5.000 Y40.000 F8000
M3
G4 P80
G1 X5.000 Y50.000 F3000
M5
G4 P40
G0 X10.000 Y0.000 F8000
M3
G4 P80
G1 X10.000 Y10.000 F3000
M5
G4 P40
G0 X10.000 Y15.000 F8000
M3
G4 P80
G1 X10.000 Y20.000 F3000
M5
G4 P40
G0 X10.000 Y30.000 F8000
M3
G4 P80
G1 X10.000 Y40.000 F3000
M5
G4 P40
G0 X10.000 Y45.000 F8000
M3
G4 P80
G1 X10.000 Y50.000 F3000
M5
G4 P40
G0 X15.000 Y5.000 F8000
M3
G4 P80
G1 X15.000 Y10.000 F3000
M5
G4 P40
G0 X15.000 Y20.000 F8000
M3
G4 P80
G1 X15.000 Y35.000 F3000
M5
G4 P40
G0 X15.000 Y40.000 F8000
M3
G4 P80
G1 X15.000 Y45.000 F3000
M5
G4 P40
G0 X15.000 Y50.000 F8000
M3
G4 P80
G1 X15.000 Y55.000 F3000
M5
G4 P40
G0 X20.000 Y5.000 F8000
M3
G4 P80
G1 X20.000 Y40.000 F3000
M5
G4 P40
G0 X20.000 Y45.000 F8000
M3
G4 P80
G1 X20.000 Y50.000 F3000
M5
G4 P40
G0 X25.000 Y10.000 F8000
M3
G4 P80
G1 X25.000 Y25.000 F3000
M5
G4 P40
G0 X25.000 Y40.000 F8000
M3
G4 P80
G1 X25.000 Y50.000 F3000
M5
G4 P40
G0 X30.000 Y25.000 F8000
M3
G4 P80
G1 X30.000 Y30.000 F3000
M5
G4 P40
G0 X30.000 Y35.000 F8000
M3
G4 P80
G1 X30.000 Y45.000 F3000
M5
G4 P40
G0 X35.000 Y0.000 F8000
M3
G4 P80
G1 X35.000 Y10.000 F3000
M5
G4 P40
G0 X35.000 Y15.000 F8000
M3
G4 P80
G1 X35.000 Y20.000 F3000
M5
G4 P40
G0 X35.000 Y30.000 F8000
M3
G4 P80
G1 X35.000 Y40.000 F3000
M5
G4 P40
G0 X35.000 Y45.000 F8000
M3
G4 P80
G1 X35.000 Y55.000 F3000
M5
G4 P40
G0 X40.000 Y5.000 F8000
M3
G4 P80
G1 X40.000 Y15.000 F3000
M5
G4 P40
G0 X40.000 Y20.000 F8000
M3
G4 P80
G1 X40.000 Y30.000 F3000
M5
G4 P40
G0 X40.000 Y40.000 F8000
M3
G4 P80
G1 X40.000 Y45.000 F3000
M5
G4 P40
G0 X45.000 Y5.000 F8000
M3
G4 P80
G1 X45.000 Y10.000 F3000
M5
G4 P40
G0 X45.000 Y25.000 F8000
M3
G4 P80
G1 X45.000 Y40.000 F3000
M5
G4 P40
G0 X50.000 Y0.000 F8000
M3
G4 P80
G1 X50.000 Y5.000 F3000
M5
G4 P40
G0 X50.000 Y15.000 F8000
M3
G4 P80
G1 X50.000 Y25.000 F3000
M5
G4 P40
G0 X50.000 Y35.000 F8000
M3
G4 P80
G1 X50.000 Y40.000 F3000
M5
G4 P40
G0 X50.000 Y45.000 F8000
M3
G4 P80
G1 X50.000 Y50.000 F3000
M5
G4 P40
G0 X55.000 Y5.000 F8000
M3
G4 P80
G1 X55.000 Y35.000 F3000
M5
G4 P40
G0 X55.000 Y40.000 F8000
M3
G4 P80
G1 X55.000 Y50.000 F3000
M5
G4 P40
G0 X60.000 Y0.000 F8000
M3
G4 P80
G1 X60.000 Y50.000 F3000
M5
G4 P40

; START label S
G0 X4.000 Y4.200 F8000
M3
G4 P80
G1 X1.200 Y4.200 F2000
G1 X1.200 Y2.500 F2000
G1 X4.000 Y2.500 F2000
G1 X4.000 Y0.800 F2000
G1 X1.200 Y0.800 F2000
M5
G4 P40

; GOAL label G
G0 X59.000 Y54.200 F8000
M3
G4 P80
G1 X56.200 Y54.200 F2000
G1 X56.200 Y50.800 F2000
G1 X59.000 Y50.800 F2000
G1 X59.000 Y52.500 F2000
G1 X57.600 Y52.500 F2000
M5
G4 P40
M5
