G21
G90
M5

; text: おはよう
; char: お
G0 X16.887 Y18.452 F8000
M3
G4 P80
G1 X17.826 Y17.826 F3000
G1 X18.452 Y16.887 F3000
G1 X17.826 Y16.887 F3000
M5
G4 P80
G0 X15.009 Y17.826 F8000
M3
G4 P80
G1 X10.939 Y17.200 F3000
M5
G4 P80
G0 X12.817 Y19.078 F8000
M3
G4 P80
G1 X12.817 Y11.252 F3000
G1 X11.565 Y11.252 F3000
G1 X10.626 Y12.191 F3000
G1 X10.626 Y13.444 F3000
G1 X11.252 Y14.383 F3000
G1 X13.757 Y15.635 F3000
G1 X15.948 Y15.635 F3000
G1 X17.513 Y15.009 F3000
G1 X18.139 Y13.757 F3000
G1 X18.139 Y12.504 F3000
G1 X17.513 Y11.565 F3000
G1 X15.635 Y10.626 F3000
M5
G4 P80
; char: は
G0 X23.331 Y19.078 F8000
M3
G4 P80
G1 X23.018 Y17.200 F3000
G1 X23.018 Y12.504 F3000
G1 X23.331 Y10.626 F3000
G1 X23.957 Y11.878 F3000
M5
G4 P80
G0 X24.896 Y17.200 F8000
M3
G4 P80
G1 X30.844 Y17.200 F3000
M5
G4 P80
G0 X28.965 Y19.078 F8000
M3
G4 P80
G1 X28.965 Y11.878 F3000
G1 X28.026 Y10.939 F3000
G1 X27.087 Y10.939 F3000
G1 X26.148 Y11.565 F3000
G1 X26.148 Y12.504 F3000
G1 X27.087 Y13.130 F3000
G1 X28.026 Y13.130 F3000
G1 X29.278 Y12.504 F3000
G1 X30.844 Y11.252 F3000
M5
G4 P80
; char: よ
G0 X42.922 Y17.200 F8000
M3
G4 P80
G1 X39.479 Y17.200 F3000
M5
G4 P80
G0 X39.479 Y19.078 F8000
M3
G4 P80
G1 X39.479 Y12.504 F3000
G1 X38.852 Y11.565 F3000
G1 X37.913 Y10.939 F3000
G1 X36.661 Y10.939 F3000
G1 X35.722 Y11.878 F3000
G1 X35.722 Y12.817 F3000
G1 X36.661 Y13.757 F3000
G1 X38.539 Y13.757 F3000
G1 X40.418 Y13.130 F3000
G1 X42.922 Y11.565 F3000
M5
G4 P80
; char: う
G0 X49.053 Y19.391 F8000
M3
G4 P80
G1 X53.748 Y18.765 F3000
M5
G4 P80
G0 X48.113 Y15.948 F8000
M3
G4 P80
G1 X49.992 Y16.887 F3000
G1 X52.809 Y16.887 F3000
G1 X54.374 Y16.261 F3000
G1 X55.000 Y15.009 F3000
G1 X55.000 Y13.757 F3000
G1 X54.374 Y12.191 F3000
G1 X53.122 Y11.252 F3000
G1 X51.870 Y10.939 F3000
G1 X49.992 Y10.626 F3000
M5
G4 P80

M5
