G21
G90
M5

; text: ロボット
; char: ロ
G0 X10.643 Y18.036 F8000
M3
G4 P80
G1 X18.357 Y18.036 F3000
G1 X18.357 Y17.072 F3000
G1 X17.714 Y11.607 F3000
G1 X10.964 Y11.607 F3000
G1 X10.643 Y18.036 F3000
M5
G4 P80
; char: ボ
G0 X23.286 Y17.393 F8000
M3
G4 P80
G1 X31.000 Y17.393 F3000
M5
G4 P80
G0 X31.000 Y18.036 F8000
M3
G4 P80
G1 X30.036 Y19.643 F3000
M5
G4 P80
G0 X31.965 Y18.357 F8000
M3
G4 P80
G1 X31.000 Y19.964 F3000
M5
G4 P80
G0 X31.322 Y11.607 F8000
M3
G4 P80
G1 X30.679 Y13.214 F3000
G1 X29.393 Y15.464 F3000
M5
G4 P80
G0 X24.893 Y15.464 F8000
M3
G4 P80
G1 X24.250 Y13.536 F3000
G1 X23.607 Y12.250 F3000
G1 X22.964 Y11.607 F3000
M5
G4 P80
G0 X27.143 Y10.643 F8000
M3
G4 P80
G1 X27.143 Y19.322 F3000
M5
G4 P80
; char: ッ
G0 X35.929 Y16.429 F8000
M3
G4 P80
G1 X36.572 Y14.179 F3000
M5
G4 P80
G0 X38.500 Y14.821 F8000
M3
G4 P80
G1 X37.857 Y17.072 F3000
M5
G4 P80
G0 X42.358 Y17.072 F8000
M3
G4 P80
G1 X42.358 Y16.429 F3000
G1 X41.072 Y12.893 F3000
G1 X39.786 Y11.286 F3000
G1 X38.500 Y10.643 F3000
M5
G4 P80
; char: ト
G0 X50.822 Y19.643 F8000
M3
G4 P80
G1 X50.822 Y10.643 F3000
M5
G4 P80
G0 X50.822 Y16.107 F8000
M3
G4 P80
G1 X53.715 Y15.143 F3000
G1 X55.000 Y14.500 F3000
M5
G4 P80

M5
