G21
G90
M5

; text: こんにちは
; char: こ
G0 X10.898 Y15.837 F8000
M3
G4 P80
G1 X13.143 Y15.612 F3000
G1 X15.388 Y15.612 F3000
G1 X14.265 Y14.939 F3000
M5
G4 P80
G0 X11.122 Y12.918 F8000
M3
G4 P80
G1 X10.449 Y12.245 F3000
G1 X10.449 Y11.571 F3000
G1 X11.122 Y11.122 F3000
G1 X12.245 Y10.898 F3000
G1 X14.490 Y10.898 F3000
G1 X15.837 Y11.122 F3000
M5
G4 P80
; char: ん
G0 X22.204 Y16.510 F8000
M3
G4 P80
G1 X19.959 Y10.449 F3000
M5
G4 P80
G0 X20.633 Y12.245 F8000
M3
G4 P80
G1 X21.755 Y13.143 F3000
G1 X22.429 Y13.367 F3000
G1 X22.878 Y13.367 F3000
G1 X23.327 Y12.694 F3000
G1 X23.327 Y11.571 F3000
G1 X24.000 Y10.673 F3000
G1 X24.674 Y10.673 F3000
G1 X25.347 Y11.122 F3000
G1 X25.796 Y11.796 F3000
M5
G4 P80
; char: に
G0 X30.143 Y16.510 F8000
M3
G4 P80
G1 X29.919 Y15.163 F3000
G1 X29.919 Y11.571 F3000
G1 X30.143 Y10.449 F3000
G1 X30.592 Y11.122 F3000
M5
G4 P80
M3
G4 P80
G1 X34.633 Y10.898 F3000
G1 X32.164 Y10.898 F3000
G1 X31.490 Y11.347 F3000
G1 X31.490 Y11.796 F3000
G1 X32.164 Y12.694 F3000
M5
G4 P80
G0 X31.266 Y15.163 F8000
M3
G4 P80
G1 X32.837 Y15.612 F3000
G1 X35.306 Y15.612 F3000
M5
G4 P80
; char: ち
G0 X39.429 Y15.163 F8000
M3
G4 P80
G1 X40.102 Y14.939 F3000
G1 X41.449 Y14.939 F3000
G1 X42.572 Y15.163 F3000
G1 X43.919 Y15.612 F3000
M5
G4 P80
G0 X41.674 Y16.510 F8000
M3
G4 P80
G1 X40.551 Y12.918 F3000
G1 X41.225 Y13.367 F3000
G1 X42.123 Y13.816 F3000
G1 X43.470 Y13.816 F3000
G1 X44.143 Y13.592 F3000
G1 X44.592 Y13.143 F3000
G1 X44.817 Y12.694 F3000
G1 X44.817 Y12.020 F3000
G1 X44.368 Y11.347 F3000
G1 X43.694 Y10.898 F3000
G1 X42.796 Y10.673 F3000
G1 X41.225 Y10.673 F3000
M5
G4 P80
; char: は
G0 X49.613 Y16.510 F8000
M3
G4 P80
G1 X49.388 Y15.163 F3000
G1 X49.388 Y11.796 F3000
G1 X49.613 Y10.449 F3000
G1 X50.062 Y11.347 F3000
M5
G4 P80
G0 X50.735 Y15.163 F8000
M3
G4 P80
G1 X55.000 Y15.163 F3000
M5
G4 P80
G0 X53.654 Y16.510 F8000
M3
G4 P80
G1 X53.654 Y11.347 F3000
G1 X52.980 Y10.673 F3000
G1 X52.307 Y10.673 F3000
G1 X51.633 Y11.122 F3000
G1 X51.633 Y11.796 F3000
G1 X52.307 Y12.245 F3000
G1 X52.980 Y12.245 F3000
G1 X53.878 Y11.796 F3000
G1 X55.000 Y10.898 F3000
M5
G4 P80

M5
