G21
G90
; qr_a.gcode
M5
G0 X24.000 Y24.175 F900.000
M3
G4 P80
G1 X31.000 Y24.175 F600.000
G1 X31.000 Y24.525 F600.000
G1 X24.000 Y24.525 F600.000
G1 X24.000 Y24.875 F600.000
G1 X31.000 Y24.875 F600.000
G1 X24.500 Y24.875 F600.000
G1 X24.500 Y25.175 F600.000
G1 X24.000 Y25.175 F600.000
G1 X25.000 Y25.175 F600.000
G1 X25.000 Y25.525 F600.000
G1 X24.000 Y25.525 F600.000
G1 X24.000 Y25.875 F600.000
G1 X25.000 Y25.875 F600.000
G1 X24.500 Y25.875 F600.000
G1 X24.500 Y26.175 F600.000
G1 X24.000 Y26.175 F600.000
G1 X25.000 Y26.175 F600.000
G1 X25.000 Y26.525 F600.000
G1 X24.000 Y26.525 F600.000
G1 X24.000 Y26.875 F600.000
G1 X25.000 Y26.875 F600.000
G1 X24.500 Y26.875 F600.000
G1 X24.500 Y27.175 F600.000
G1 X24.000 Y27.175 F600.000
G1 X25.000 Y27.175 F600.000
G1 X25.000 Y27.525 F600.000
G1 X24.000 Y27.525 F600.000
G1 X24.000 Y27.875 F600.000
G1 X25.000 Y27.875 F600.000
G1 X24.500 Y27.875 F600.000
G1 X24.500 Y28.175 F600.000
G1 X24.000 Y28.175 F600.000
G1 X25.000 Y28.175 F600.000
G1 X25.000 Y28.525 F600.000
G1 X24.000 Y28.525 F600.000
G1 X24.000 Y28.875 F600.000
G1 X25.000 Y28.875 F600.000
G1 X24.500 Y28.875 F600.000
G1 X24.500 Y29.175 F600.000
G1 X24.000 Y29.175 F600.000
G1 X25.000 Y29.175 F600.000
G1 X25.000 Y29.525 F600.000
G1 X24.000 Y29.525 F600.000
G1 X24.000 Y29.875 F600.000
G1 X25.000 Y29.875 F600.000
G1 X24.500 Y29.875 F600.000
G1 X24.500 Y30.175 F600.000
G1 X24.000 Y30.175 F600.000
G1 X31.000 Y30.175 F600.000
G1 X31.000 Y30.525 F600.000
G1 X24.000 Y30.525 F600.000
G1 X24.000 Y30.875 F600.000
G1 X31.000 Y30.875 F600.000
G1 X30.500 Y30.875 F600.000
G1 X30.500 Y29.175 F600.000
G1 X30.000 Y29.175 F600.000
G1 X31.000 Y29.175 F600.000
G1 X31.000 Y29.525 F600.000
G1 X30.000 Y29.525 F600.000
G1 X30.000 Y29.875 F600.000
G1 X31.000 Y29.875 F600.000
G1 X30.500 Y29.875 F600.000
G1 X30.500 Y28.175 F600.000
G1 X30.000 Y28.175 F600.000
G1 X31.000 Y28.175 F600.000
G1 X31.000 Y28.525 F600.000
G1 X30.000 Y28.525 F600.000
G1 X30.000 Y28.875 F600.000
G1 X31.000 Y28.875 F600.000
G1 X30.500 Y28.875 F600.000
G1 X30.500 Y27.175 F600.000
G1 X30.000 Y27.175 F600.000
G1 X31.000 Y27.175 F600.000
G1 X31.000 Y27.525 F600.000
G1 X30.000 Y27.525 F600.000
G1 X30.000 Y27.875 F600.000
G1 X31.000 Y27.875 F600.000
G1 X30.500 Y27.875 F600.000
G1 X30.500 Y26.175 F600.000
G1 X30.000 Y26.175 F600.000
G1 X31.000 Y26.175 F600.000
G1 X31.000 Y26.525 F600.000
G1 X30.000 Y26.525 F600.000
G1 X30.000 Y26.875 F600.000
G1 X31.000 Y26.875 F600.000
G1 X30.500 Y26.875 F600.000
G1 X30.500 Y25.175 F600.000
G1 X30.000 Y25.175 F600.000
G1 X31.000 Y25.175 F600.000
G1 X31.000 Y25.525 F600.000
G1 X30.000 Y25.525 F600.000
G1 X30.000 Y25.875 F600.000
G1 X31.000 Y25.875 F600.000
G1 X30.500 Y25.875 F600.000
G1 X30.500 Y26.875 F600.000
G1 X30.500 Y27.875 F600.000
G1 X30.500 Y28.875 F600.000
G1 X30.500 Y29.875 F600.000
G1 X30.500 Y30.875 F600.000
G1 X24.500 Y30.875 F600.000
G1 X24.500 Y29.875 F600.000
G1 X24.500 Y28.875 F600.000
G1 X24.500 Y27.875 F600.000
G1 X24.500 Y26.875 F600.000
G1 X24.500 Y25.875 F600.000
G1 X24.500 Y24.875 F600.000
M5
G4 P80
G0 X33.000 Y24.175 F900.000
M3
G4 P80
G1 X34.000 Y24.175 F600.000
G1 X34.000 Y24.525 F600.000
G1 X33.000 Y24.525 F600.000
G1 X33.000 Y24.875 F600.000
G1 X34.000 Y24.875 F600.000
M5
G4 P80
G0 X35.000 Y24.175 F900.000
M3
G4 P80
G1 X37.000 Y24.175 F600.000
G1 X37.000 Y24.525 F600.000
G1 X35.000 Y24.525 F600.000
G1 X35.000 Y24.875 F600.000
G1 X37.000 Y24.875 F600.000
G1 X35.500 Y24.875 F600.000
G1 X35.500 Y25.175 F600.000
G1 X36.000 Y25.175 F600.000
G1 X34.000 Y25.175 F600.000
G1 X34.000 Y25.525 F600.000
G1 X36.000 Y25.525 F600.000
G1 X36.000 Y25.875 F600.000
G1 X34.000 Y25.875 F600.000
G1 X35.500 Y25.875 F600.000
G1 X35.500 Y26.175 F600.000
G1 X35.000 Y26.175 F600.000
G1 X36.000 Y26.175 F600.000
G1 X36.000 Y26.525 F600.000
G1 X35.000 Y26.525 F600.000
G1 X35.000 Y26.875 F600.000
G1 X36.000 Y26.875 F600.000
G1 X35.500 Y26.875 F600.000
G1 X35.500 Y27.175 F600.000
G1 X36.000 Y27.175 F600.000
G1 X34.000 Y27.175 F600.000
G1 X34.000 Y27.525 F600.000
G1 X36.000 Y27.525 F600.000
G1 X36.000 Y27.875 F600.000
G1 X34.000 Y27.875 F600.000
G1 X35.500 Y27.875 F600.000
G1 X35.500 Y26.875 F600.000
G1 X35.500 Y25.875 F600.000
G1 X35.500 Y24.875 F600.000
M5
G4 P80
G0 X38.000 Y24.175 F900.000
M3
G4 P80
G1 X45.000 Y24.175 F600.000
G1 X45.000 Y24.525 F600.000
G1 X38.000 Y24.525 F600.000
G1 X38.000 Y24.875 F600.000
G1 X45.000 Y24.875 F600.000
G1 X38.500 Y24.875 F600.000
G1 X38.500 Y25.175 F600.000
G1 X38.000 Y25.175 F600.000
G1 X39.000 Y25.175 F600.000
G1 X39.000 Y25.525 F600.000
G1 X38.000 Y25.525 F600.000
G1 X38.000 Y25.875 F600.000
G1 X39.000 Y25.875 F600.000
G1 X38.500 Y25.875 F600.000
G1 X38.500 Y26.175 F600.000
G1 X38.000 Y26.175 F600.000
G1 X39.000 Y26.175 F600.000
G1 X39.000 Y26.525 F600.000
G1 X38.000 Y26.525 F600.000
G1 X38.000 Y26.875 F600.000
G1 X39.000 Y26.875 F600.000
G1 X38.500 Y26.875 F600.000
G1 X38.500 Y27.175 F600.000
G1 X38.000 Y27.175 F600.000
G1 X39.000 Y27.175 F600.000
G1 X39.000 Y27.525 F600.000
G1 X38.000 Y27.525 F600.000
G1 X38.000 Y27.875 F600.000
G1 X39.000 Y27.875 F600.000
G1 X38.500 Y27.875 F600.000
G1 X38.500 Y28.175 F600.000
G1 X38.000 Y28.175 F600.000
G1 X39.000 Y28.175 F600.000
G1 X39.000 Y28.525 F600.000
G1 X38.000 Y28.525 F600.000
G1 X38.000 Y28.875 F600.000
G1 X39.000 Y28.875 F600.000
G1 X38.500 Y28.875 F600.000
G1 X38.500 Y29.175 F600.000
G1 X38.000 Y29.175 F600.000
G1 X39.000 Y29.175 F600.000
G1 X39.000 Y29.525 F600.000
G1 X38.000 Y29.525 F600.000
G1 X38.000 Y29.875 F600.000
G1 X39.000 Y29.875 F600.000
G1 X38.500 Y29.875 F600.000
G1 X38.500 Y30.175 F600.000
G1 X38.000 Y30.175 F600.000
G1 X45.000 Y30.175 F600.000
G1 X45.000 Y30.525 F600.000
G1 X38.000 Y30.525 F600.000
G1 X38.000 Y30.875 F600.000
G1 X45.000 Y30.875 F600.000
G1 X44.500 Y30.875 F600.000
G1 X44.500 Y29.175 F600.000
G1 X44.000 Y29.175 F600.000
G1 X45.000 Y29.175 F600.000
G1 X45.000 Y29.525 F600.000
G1 X44.000 Y29.525 F600.000
G1 X44.000 Y29.875 F600.000
G1 X45.000 Y29.875 F600.000
G1 X44.500 Y29.875 F600.000
G1 X44.500 Y28.175 F600.000
G1 X44.000 Y28.175 F600.000
G1 X45.000 Y28.175 F600.000
G1 X45.000 Y28.525 F600.000
G1 X44.000 Y28.525 F600.000
G1 X44.000 Y28.875 F600.000
G1 X45.000 Y28.875 F600.000
G1 X44.500 Y28.875 F600.000
G1 X44.500 Y27.175 F600.000
G1 X44.000 Y27.175 F600.000
G1 X45.000 Y27.175 F600.000
G1 X45.000 Y27.525 F600.000
G1 X44.000 Y27.525 F600.000
G1 X44.000 Y27.875 F600.000
G1 X45.000 Y27.875 F600.000
G1 X44.500 Y27.875 F600.000
G1 X44.500 Y26.175 F600.000
G1 X44.000 Y26.175 F600.000
G1 X45.000 Y26.175 F600.000
G1 X45.000 Y26.525 F600.000
G1 X44.000 Y26.525 F600.000
G1 X44.000 Y26.875 F600.000
G1 X45.000 Y26.875 F600.000
G1 X44.500 Y26.875 F600.000
G1 X44.500 Y25.175 F600.000
G1 X44.000 Y25.175 F600.000
G1 X45.000 Y25.175 F600.000
G1 X45.000 Y25.525 F600.000
G1 X44.000 Y25.525 F600.000
G1 X44.000 Y25.875 F600.000
G1 X45.000 Y25.875 F600.000
G1 X44.500 Y25.875 F600.000
G1 X44.500 Y26.875 F600.000
G1 X44.500 Y27.875 F600.000
G1 X44.500 Y28.875 F600.000
G1 X44.500 Y29.875 F600.000
G1 X44.500 Y30.875 F600.000
G1 X38.500 Y30.875 F600.000
G1 X38.500 Y29.875 F600.000
G1 X38.500 Y28.875 F600.000
G1 X38.500 Y27.875 F600.000
G1 X38.500 Y26.875 F600.000
G1 X38.500 Y25.875 F600.000
G1 X38.500 Y24.875 F600.000
M5
G4 P80
G0 X32.000 Y25.175 F900.000
M3
G4 P80
G1 X33.000 Y25.175 F600.000
G1 X33.000 Y25.525 F600.000
G1 X32.000 Y25.525 F600.000
G1 X32.000 Y25.875 F600.000
G1 X33.000 Y25.875 F600.000
G1 X32.500 Y25.875 F600.000
G1 X32.500 Y26.175 F600.000
G1 X32.000 Y26.175 F600.000
G1 X34.000 Y26.175 F600.000
G1 X34.000 Y26.525 F600.000
G1 X32.000 Y26.525 F600.000
G1 X32.000 Y26.875 F600.000
G1 X34.000 Y26.875 F600.000
G1 X32.500 Y26.875 F600.000
G1 X32.500 Y27.175 F600.000
G1 X32.000 Y27.175 F600.000
G1 X33.000 Y27.175 F600.000
G1 X33.000 Y27.525 F600.000
G1 X32.000 Y27.525 F600.000
G1 X32.000 Y27.875 F600.000
G1 X33.000 Y27.875 F600.000
G1 X32.500 Y27.875 F600.000
G1 X32.500 Y26.875 F600.000
G1 X32.500 Y25.875 F600.000
M5
G4 P80
G0 X26.000 Y26.175 F900.000
M3
G4 P80
G1 X29.000 Y26.175 F600.000
G1 X29.000 Y26.525 F600.000
G1 X26.000 Y26.525 F600.000
G1 X26.000 Y26.875 F600.000
G1 X29.000 Y26.875 F600.000
G1 X27.500 Y26.875 F600.000
G1 X27.500 Y27.175 F600.000
G1 X26.000 Y27.175 F600.000
G1 X29.000 Y27.175 F600.000
G1 X29.000 Y27.525 F600.000
G1 X26.000 Y27.525 F600.000
G1 X26.000 Y27.875 F600.000
G1 X29.000 Y27.875 F600.000
G1 X27.500 Y27.875 F600.000
G1 X27.500 Y28.175 F600.000
G1 X26.000 Y28.175 F600.000
G1 X29.000 Y28.175 F600.000
G1 X29.000 Y28.525 F600.000
G1 X26.000 Y28.525 F600.000
G1 X26.000 Y28.875 F600.000
G1 X29.000 Y28.875 F600.000
G1 X27.500 Y28.875 F600.000
G1 X27.500 Y27.875 F600.000
G1 X27.500 Y26.875 F600.000
M5
G4 P80
G0 X40.000 Y26.175 F900.000
M3
G4 P80
G1 X43.000 Y26.175 F600.000
G1 X43.000 Y26.525 F600.000
G1 X40.000 Y26.525 F600.000
G1 X40.000 Y26.875 F600.000
G1 X43.000 Y26.875 F600.000
G1 X41.500 Y26.875 F600.000
G1 X41.500 Y27.175 F600.000
G1 X40.000 Y27.175 F600.000
G1 X43.000 Y27.175 F600.000
G1 X43.000 Y27.525 F600.000
G1 X40.000 Y27.525 F600.000
G1 X40.000 Y27.875 F600.000
G1 X43.000 Y27.875 F600.000
G1 X41.500 Y27.875 F600.000
G1 X41.500 Y28.175 F600.000
G1 X40.000 Y28.175 F600.000
G1 X43.000 Y28.175 F600.000
G1 X43.000 Y28.525 F600.000
G1 X40.000 Y28.525 F600.000
G1 X40.000 Y28.875 F600.000
G1 X43.000 Y28.875 F600.000
G1 X41.500 Y28.875 F600.000
G1 X41.500 Y27.875 F600.000
G1 X41.500 Y26.875 F600.000
M5
G4 P80
G0 X33.000 Y28.175 F900.000
M3
G4 P80
G1 X34.000 Y28.175 F600.000
G1 X34.000 Y28.525 F600.000
G1 X33.000 Y28.525 F600.000
G1 X33.000 Y28.875 F600.000
G1 X34.000 Y28.875 F600.000
M5
G4 P80
G0 X36.000 Y28.175 F900.000
M3
G4 P80
G1 X37.000 Y28.175 F600.000
G1 X37.000 Y28.525 F600.000
G1 X36.000 Y28.525 F600.000
G1 X36.000 Y28.875 F600.000
G1 X37.000 Y28.875 F600.000
M5
G4 P80
G0 X34.000 Y29.175 F900.000
M3
G4 P80
G1 X36.000 Y29.175 F600.000
G1 X36.000 Y29.525 F600.000
G1 X34.000 Y29.525 F600.000
G1 X34.000 Y29.875 F600.000
G1 X36.000 Y29.875 F600.000
G1 X34.500 Y29.875 F600.000
G1 X34.500 Y30.175 F600.000
G1 X34.000 Y30.175 F600.000
G1 X35.000 Y30.175 F600.000
G1 X35.000 Y30.525 F600.000
G1 X34.000 Y30.525 F600.000
G1 X34.000 Y30.875 F600.000
G1 X35.000 Y30.875 F600.000
G1 X34.500 Y30.875 F600.000
G1 X34.500 Y29.875 F600.000
M5
G4 P80
G0 X32.000 Y30.175 F900.000
M3
G4 P80
G1 X33.000 Y30.175 F600.000
G1 X33.000 Y30.525 F600.000
G1 X32.000 Y30.525 F600.000
G1 X32.000 Y30.875 F600.000
G1 X33.000 Y30.875 F600.000
G1 X32.500 Y30.875 F600.000
G1 X32.500 Y31.175 F600.000
G1 X32.000 Y31.175 F600.000
G1 X34.000 Y31.175 F600.000
G1 X34.000 Y31.525 F600.000
G1 X32.000 Y31.525 F600.000
G1 X32.000 Y31.875 F600.000
G1 X34.000 Y31.875 F600.000
G1 X32.500 Y31.875 F600.000
G1 X32.500 Y32.175 F600.000
G1 X32.000 Y32.175 F600.000
G1 X33.000 Y32.175 F600.000
G1 X33.000 Y32.525 F600.000
G1 X32.000 Y32.525 F600.000
G1 X32.000 Y32.875 F600.000
G1 X33.000 Y32.875 F600.000
G1 X32.500 Y32.875 F600.000
G1 X32.500 Y31.875 F600.000
G1 X32.500 Y30.875 F600.000
M5
G4 P80
G0 X36.000 Y30.175 F900.000
M3
G4 P80
G1 X37.000 Y30.175 F600.000
G1 X37.000 Y30.525 F600.000
G1 X36.000 Y30.525 F600.000
G1 X36.000 Y30.875 F600.000
G1 X37.000 Y30.875 F600.000
M5
G4 P80
G0 X24.000 Y32.175 F900.000
M3
G4 P80
G1 X25.000 Y32.175 F600.000
G1 X25.000 Y32.525 F600.000
G1 X24.000 Y32.525 F600.000
G1 X24.000 Y32.875 F600.000
G1 X25.000 Y32.875 F600.000
G1 X24.500 Y32.875 F600.000
G1 X24.500 Y33.175 F600.000
G1 X24.000 Y33.175 F600.000
G1 X25.000 Y33.175 F600.000
G1 X25.000 Y33.525 F600.000
G1 X24.000 Y33.525 F600.000
G1 X24.000 Y33.875 F600.000
G1 X25.000 Y33.875 F600.000
G1 X24.500 Y33.875 F600.000
G1 X24.500 Y32.875 F600.000
M5
G4 P80
G0 X30.000 Y32.175 F900.000
M3
G4 P80
G1 X31.000 Y32.175 F600.000
G1 X31.000 Y32.525 F600.000
G1 X30.000 Y32.525 F600.000
G1 X30.000 Y32.875 F600.000
G1 X31.000 Y32.875 F600.000
M5
G4 P80
G0 X34.000 Y32.175 F900.000
M3
G4 P80
G1 X36.000 Y32.175 F600.000
G1 X36.000 Y32.525 F600.000
G1 X34.000 Y32.525 F600.000
G1 X34.000 Y32.875 F600.000
G1 X36.000 Y32.875 F600.000
G1 X35.500 Y32.875 F600.000
G1 X35.500 Y33.175 F600.000
G1 X35.000 Y33.175 F600.000
G1 X38.000 Y33.175 F600.000
G1 X38.000 Y33.525 F600.000
G1 X35.000 Y33.525 F600.000
G1 X35.000 Y33.875 F600.000
G1 X38.000 Y33.875 F600.000
G1 X37.500 Y33.875 F600.000
G1 X37.500 Y32.175 F600.000
G1 X37.000 Y32.175 F600.000
G1 X39.000 Y32.175 F600.000
G1 X39.000 Y32.525 F600.000
G1 X37.000 Y32.525 F600.000
G1 X37.000 Y32.875 F600.000
G1 X39.000 Y32.875 F600.000
G1 X37.500 Y32.875 F600.000
G1 X37.500 Y33.875 F600.000
G1 X36.500 Y33.875 F600.000
G1 X36.500 Y34.175 F600.000
G1 X36.000 Y34.175 F600.000
G1 X37.000 Y34.175 F600.000
G1 X37.000 Y34.525 F600.000
G1 X36.000 Y34.525 F600.000
G1 X36.000 Y34.875 F600.000
G1 X37.000 Y34.875 F600.000
G1 X36.500 Y34.875 F600.000
G1 X36.500 Y35.175 F600.000
G1 X35.000 Y35.175 F600.000
G1 X40.000 Y35.175 F600.000
G1 X40.000 Y35.525 F600.000
G1 X35.000 Y35.525 F600.000
G1 X35.000 Y35.875 F600.000
G1 X40.000 Y35.875 F600.000
G1 X39.000 Y35.875 F600.000
G1 X39.000 Y34.175 F600.000
G1 X38.000 Y34.175 F600.000
G1 X40.000 Y34.175 F600.000
G1 X40.000 Y34.525 F600.000
G1 X38.000 Y34.525 F600.000
G1 X38.000 Y34.875 F600.000
G1 X40.000 Y34.875 F600.000
G1 X39.500 Y34.875 F600.000
G1 X39.500 Y33.175 F600.000
G1 X39.000 Y33.175 F600.000
G1 X42.000 Y33.175 F600.000
G1 X42.000 Y33.525 F600.000
G1 X39.000 Y33.525 F600.000
G1 X39.000 Y33.875 F600.000
G1 X42.000 Y33.875 F600.000
G1 X41.500 Y33.875 F600.000
G1 X41.500 Y32.175 F600.000
G1 X41.000 Y32.175 F600.000
G1 X44.000 Y32.175 F600.000
G1 X44.000 Y32.525 F600.000
G1 X41.000 Y32.525 F600.000
G1 X41.000 Y32.875 F600.000
G1 X44.000 Y32.875 F600.000
G1 X41.500 Y32.875 F600.000
G1 X41.500 Y33.875 F600.000
G1 X39.500 Y33.875 F600.000
G1 X39.500 Y34.875 F600.000
G1 X39.000 Y34.875 F600.000
G1 X39.000 Y35.875 F600.000
G1 X37.500 Y35.875 F600.000
G1 X37.500 Y36.175 F600.000
G1 X35.000 Y36.175 F600.000
G1 X45.000 Y36.175 F600.000
G1 X45.000 Y36.525 F600.000
G1 X35.000 Y36.525 F600.000
G1 X35.000 Y36.875 F600.000
G1 X45.000 Y36.875 F600.000
G1 X41.500 Y36.875 F600.000
G1 X41.500 Y35.175 F600.000
G1 X41.000 Y35.175 F600.000
G1 X42.000 Y35.175 F600.000
G1 X42.000 Y35.525 F600.000
G1 X41.000 Y35.525 F600.000
G1 X41.000 Y35.875 F600.000
G1 X42.000 Y35.875 F600.000
G1 X41.500 Y35.875 F600.000
G1 X41.500 Y36.875 F600.000
G1 X43.500 Y36.875 F600.000
G1 X43.500 Y35.175 F600.000
G1 X43.000 Y35.175 F600.000
G1 X44.000 Y35.175 F600.000
G1 X44.000 Y35.525 F600.000
G1 X43.000 Y35.525 F600.000
G1 X43.000 Y35.875 F600.000
G1 X44.000 Y35.875 F600.000
G1 X43.500 Y35.875 F600.000
G1 X43.500 Y36.875 F600.000
G1 X36.500 Y36.875 F600.000
G1 X36.500 Y37.175 F600.000
G1 X36.000 Y37.175 F600.000
G1 X37.000 Y37.175 F600.000
G1 X37.000 Y37.525 F600.000
G1 X36.000 Y37.525 F600.000
G1 X36.000 Y37.875 F600.000
G1 X37.000 Y37.875 F600.000
G1 X36.500 Y37.875 F600.000
G1 X36.500 Y36.875 F600.000
G1 X42.500 Y36.875 F600.000
G1 X42.500 Y37.175 F600.000
G1 X42.000 Y37.175 F600.000
G1 X43.000 Y37.175 F600.000
G1 X43.000 Y37.525 F600.000
G1 X42.000 Y37.525 F600.000
G1 X42.000 Y37.875 F600.000
G1 X43.000 Y37.875 F600.000
G1 X42.500 Y37.875 F600.000
G1 X42.500 Y38.175 F600.000
G1 X44.000 Y38.175 F600.000
G1 X40.000 Y38.175 F600.000
G1 X40.000 Y38.525 F600.000
G1 X44.000 Y38.525 F600.000
G1 X44.000 Y38.875 F600.000
G1 X40.000 Y38.875 F600.000
G1 X43.000 Y38.875 F600.000
G1 X43.000 Y39.175 F600.000
G1 X42.000 Y39.175 F600.000
G1 X45.000 Y39.175 F600.000
G1 X45.000 Y39.525 F600.000
G1 X42.000 Y39.525 F600.000
G1 X42.000 Y39.875 F600.000
G1 X45.000 Y39.875 F600.000
G1 X42.500 Y39.875 F600.000
G1 X42.500 Y40.175 F600.000
G1 X43.000 Y40.175 F600.000
G1 X40.000 Y40.175 F600.000
G1 X40.000 Y40.525 F600.000
G1 X43.000 Y40.525 F600.000
G1 X43.000 Y40.875 F600.000
G1 X40.000 Y40.875 F600.000
G1 X41.500 Y40.875 F600.000
G1 X41.500 Y41.175 F600.000
G1 X41.000 Y41.175 F600.000
G1 X42.000 Y41.175 F600.000
G1 X42.000 Y41.525 F600.000
G1 X41.000 Y41.525 F600.000
G1 X41.000 Y41.875 F600.000
G1 X42.000 Y41.875 F600.000
G1 X41.500 Y41.875 F600.000
G1 X41.500 Y42.175 F600.000
G1 X42.000 Y42.175 F600.000
G1 X39.000 Y42.175 F600.000
G1 X39.000 Y42.525 F600.000
G1 X42.000 Y42.525 F600.000
G1 X42.000 Y42.875 F600.000
G1 X39.000 Y42.875 F600.000
G1 X39.500 Y42.875 F600.000
G1 X39.500 Y41.175 F600.000
G1 X40.000 Y41.175 F600.000
G1 X35.000 Y41.175 F600.000
G1 X35.000 Y41.525 F600.000
G1 X40.000 Y41.525 F600.000
G1 X40.000 Y41.875 F600.000
G1 X35.000 Y41.875 F600.000
G1 X35.500 Y41.875 F600.000
G1 X35.500 Y40.175 F600.000
G1 X36.000 Y40.175 F600.000
G1 X33.000 Y40.175 F600.000
G1 X33.000 Y40.525 F600.000
G1 X36.000 Y40.525 F600.000
G1 X36.000 Y40.875 F600.000
G1 X33.000 Y40.875 F600.000
G1 X34.500 Y40.875 F600.000
G1 X34.500 Y39.175 F600.000
G1 X34.000 Y39.175 F600.000
G1 X35.000 Y39.175 F600.000
G1 X35.000 Y39.525 F600.000
G1 X34.000 Y39.525 F600.000
G1 X34.000 Y39.875 F600.000
G1 X35.000 Y39.875 F600.000
G1 X34.500 Y39.875 F600.000
G1 X34.500 Y38.175 F600.000
G1 X33.000 Y38.175 F600.000
G1 X36.000 Y38.175 F600.000
G1 X36.000 Y38.525 F600.000
G1 X33.000 Y38.525 F600.000
G1 X33.000 Y38.875 F600.000
G1 X36.000 Y38.875 F600.000
G1 X33.500 Y38.875 F600.000
G1 X33.500 Y37.175 F600.000
G1 X34.000 Y37.175 F600.000
G1 X32.000 Y37.175 F600.000
G1 X32.000 Y37.525 F600.000
G1 X34.000 Y37.525 F600.000
G1 X34.000 Y37.875 F600.000
G1 X32.000 Y37.875 F600.000
G1 X33.000 Y37.875 F600.000
G1 X33.000 Y36.175 F600.000
G1 X34.000 Y36.175 F600.000
G1 X30.000 Y36.175 F600.000
G1 X30.000 Y36.525 F600.000
G1 X34.000 Y36.525 F600.000
G1 X34.000 Y36.875 F600.000
G1 X30.000 Y36.875 F600.000
G1 X32.000 Y36.875 F600.000
G1 X32.000 Y35.175 F600.000
G1 X31.000 Y35.175 F600.000
G1 X33.000 Y35.175 F600.000
G1 X33.000 Y35.525 F600.000
G1 X31.000 Y35.525 F600.000
G1 X31.000 Y35.875 F600.000
G1 X33.000 Y35.875 F600.000
G1 X32.000 Y35.875 F600.000
G1 X32.000 Y36.875 F600.000
G1 X33.000 Y36.875 F600.000
G1 X33.000 Y37.875 F600.000
G1 X33.500 Y37.875 F600.000
G1 X33.500 Y38.875 F600.000
G1 X34.500 Y38.875 F600.000
G1 X34.500 Y39.875 F600.000
G1 X34.500 Y40.875 F600.000
G1 X33.500 Y40.875 F600.000
G1 X33.500 Y41.175 F600.000
G1 X33.000 Y41.175 F600.000
G1 X34.000 Y41.175 F600.000
G1 X34.000 Y41.525 F600.000
G1 X33.000 Y41.525 F600.000
G1 X33.000 Y41.875 F600.000
G1 X34.000 Y41.875 F600.000
G1 X33.500 Y41.875 F600.000
G1 X33.500 Y42.175 F600.000
G1 X33.000 Y42.175 F600.000
G1 X34.000 Y42.175 F600.000
G1 X34.000 Y42.525 F600.000
G1 X33.000 Y42.525 F600.000
G1 X33.000 Y42.875 F600.000
G1 X34.000 Y42.875 F600.000
G1 X33.500 Y42.875 F600.000
G1 X33.500 Y41.875 F600.000
G1 X33.500 Y40.875 F600.000
G1 X35.500 Y40.875 F600.000
G1 X35.500 Y41.875 F600.000
G1 X37.500 Y41.875 F600.000
G1 X37.500 Y40.175 F600.000
G1 X37.000 Y40.175 F600.000
G1 X38.000 Y40.175 F600.000
G1 X38.000 Y40.525 F600.000
G1 X37.000 Y40.525 F600.000
G1 X37.000 Y40.875 F600.000
G1 X38.000 Y40.875 F600.000
G1 X37.500 Y40.875 F600.000
G1 X37.500 Y41.875 F600.000
G1 X36.500 Y41.875 F600.000
G1 X36.500 Y42.175 F600.000
G1 X35.000 Y42.175 F600.000
G1 X38.000 Y42.175 F600.000
G1 X38.000 Y42.525 F600.000
G1 X35.000 Y42.525 F600.000
G1 X35.000 Y42.875 F600.000
G1 X38.000 Y42.875 F600.000
G1 X36.500 Y42.875 F600.000
G1 X36.500 Y43.175 F600.000
G1 X34.000 Y43.175 F600.000
G1 X40.000 Y43.175 F600.000
G1 X40.000 Y43.525 F600.000
G1 X34.000 Y43.525 F600.000
G1 X34.000 Y43.875 F600.000
G1 X40.000 Y43.875 F600.000
G1 X34.500 Y43.875 F600.000
G1 X34.500 Y44.175 F600.000
G1 X34.000 Y44.175 F600.000
G1 X35.000 Y44.175 F600.000
G1 X35.000 Y44.525 F600.000
G1 X34.000 Y44.525 F600.000
G1 X34.000 Y44.875 F600.000
G1 X35.000 Y44.875 F600.000
G1 X34.500 Y44.875 F600.000
G1 X34.500 Y43.875 F600.000
G1 X36.500 Y43.875 F600.000
G1 X36.500 Y44.175 F600.000
G1 X36.000 Y44.175 F600.000
G1 X37.000 Y44.175 F600.000
G1 X37.000 Y44.525 F600.000
G1 X36.000 Y44.525 F600.000
G1 X36.000 Y44.875 F600.000
G1 X37.000 Y44.875 F600.000
G1 X36.500 Y44.875 F600.000
G1 X36.500 Y43.875 F600.000
G1 X39.500 Y43.875 F600.000
G1 X39.500 Y44.175 F600.000
G1 X39.000 Y44.175 F600.000
G1 X40.000 Y44.175 F600.000
G1 X40.000 Y44.525 F600.000
G1 X39.000 Y44.525 F600.000
G1 X39.000 Y44.875 F600.000
G1 X40.000 Y44.875 F600.000
G1 X39.500 Y44.875 F600.000
G1 X39.500 Y43.875 F600.000
G1 X36.500 Y43.875 F600.000
G1 X36.500 Y42.875 F600.000
G1 X36.500 Y41.875 F600.000
G1 X39.500 Y41.875 F600.000
G1 X39.500 Y42.875 F600.000
G1 X41.500 Y42.875 F600.000
G1 X41.500 Y43.175 F600.000
G1 X41.000 Y43.175 F600.000
G1 X42.000 Y43.175 F600.000
G1 X42.000 Y43.525 F600.000
G1 X41.000 Y43.525 F600.000
G1 X41.000 Y43.875 F600.000
G1 X42.000 Y43.875 F600.000
G1 X41.500 Y43.875 F600.000
G1 X41.500 Y42.875 F600.000
G1 X41.500 Y41.875 F600.000
G1 X41.500 Y40.875 F600.000
G1 X42.500 Y40.875 F600.000
G1 X42.500 Y39.875 F600.000
G1 X43.000 Y39.875 F600.000
G1 X43.000 Y38.875 F600.000
G1 X42.500 Y38.875 F600.000
G1 X42.500 Y37.875 F600.000
G1 X42.500 Y36.875 F600.000
G1 X44.500 Y36.875 F600.000
G1 X44.500 Y37.175 F600.000
G1 X44.000 Y37.175 F600.000
G1 X45.000 Y37.175 F600.000
G1 X45.000 Y37.525 F600.000
G1 X44.000 Y37.525 F600.000
G1 X44.000 Y37.875 F600.000
G1 X45.000 Y37.875 F600.000
G1 X44.500 Y37.875 F600.000
G1 X44.500 Y36.875 F600.000
G1 X37.500 Y36.875 F600.000
G1 X37.500 Y35.875 F600.000
G1 X36.500 Y35.875 F600.000
G1 X36.500 Y34.875 F600.000
G1 X36.500 Y33.875 F600.000
G1 X35.500 Y33.875 F600.000
G1 X35.500 Y32.875 F600.000
M5
G4 P80
G0 X27.000 Y33.175 F900.000
M3
G4 P80
G1 X29.000 Y33.175 F600.000
G1 X29.000 Y33.525 F600.000
G1 X27.000 Y33.525 F600.000
G1 X27.000 Y33.875 F600.000
G1 X29.000 Y33.875 F600.000
G1 X28.500 Y33.875 F600.000
G1 X28.500 Y34.175 F600.000
G1 X28.000 Y34.175 F600.000
G1 X31.000 Y34.175 F600.000
G1 X31.000 Y34.525 F600.000
G1 X28.000 Y34.525 F600.000
G1 X28.000 Y34.875 F600.000
G1 X31.000 Y34.875 F600.000
G1 X29.500 Y34.875 F600.000
G1 X29.500 Y35.175 F600.000
G1 X29.000 Y35.175 F600.000
G1 X30.000 Y35.175 F600.000
G1 X30.000 Y35.525 F600.000
G1 X29.000 Y35.525 F600.000
G1 X29.000 Y35.875 F600.000
G1 X30.000 Y35.875 F600.000
G1 X29.500 Y35.875 F600.000
G1 X29.500 Y34.875 F600.000
G1 X28.500 Y34.875 F600.000
G1 X28.500 Y33.875 F600.000
M5
G4 P80
G0 X44.000 Y33.175 F900.000
M3
G4 P80
G1 X45.000 Y33.175 F600.000
G1 X45.000 Y33.525 F600.000
G1 X44.000 Y33.525 F600.000
G1 X44.000 Y33.875 F600.000
G1 X45.000 Y33.875 F600.000
M5
G4 P80
G0 X26.000 Y34.175 F900.000
M3
G4 P80
G1 X27.000 Y34.175 F600.000
G1 X27.000 Y34.525 F600.000
G1 X26.000 Y34.525 F600.000
G1 X26.000 Y34.875 F600.000
G1 X27.000 Y34.875 F600.000
M5
G4 P80
G0 X33.000 Y34.175 F900.000
M3
G4 P80
G1 X35.000 Y34.175 F600.000
G1 X35.000 Y34.525 F600.000
G1 X33.000 Y34.525 F600.000
G1 X33.000 Y34.875 F600.000
G1 X35.000 Y34.875 F600.000
M5
G4 P80
G0 X25.000 Y35.175 F900.000
M3
G4 P80
G1 X26.000 Y35.175 F600.000
G1 X26.000 Y35.525 F600.000
G1 X25.000 Y35.525 F600.000
G1 X25.000 Y35.875 F600.000
G1 X26.000 Y35.875 F600.000
G1 X25.500 Y35.875 F600.000
G1 X25.500 Y36.175 F600.000
G1 X26.000 Y36.175 F600.000
G1 X24.000 Y36.175 F600.000
G1 X24.000 Y36.525 F600.000
G1 X26.000 Y36.525 F600.000
G1 X26.000 Y36.875 F600.000
G1 X24.000 Y36.875 F600.000
G1 X25.500 Y36.875 F600.000
G1 X25.500 Y35.875 F600.000
M5
G4 P80
G0 X27.000 Y35.175 F900.000
M3
G4 P80
G1 X28.000 Y35.175 F600.000
G1 X28.000 Y35.525 F600.000
G1 X27.000 Y35.525 F600.000
G1 X27.000 Y35.875 F600.000
G1 X28.000 Y35.875 F600.000
G1 X27.500 Y35.875 F600.000
G1 X27.500 Y36.175 F600.000
G1 X27.000 Y36.175 F600.000
G1 X28.000 Y36.175 F600.000
G1 X28.000 Y36.525 F600.000
G1 X27.000 Y36.525 F600.000
G1 X27.000 Y36.875 F600.000
G1 X28.000 Y36.875 F600.000
G1 X27.500 Y36.875 F600.000
G1 X27.500 Y35.875 F600.000
M5
G4 P80
G0 X24.000 Y38.175 F900.000
M3
G4 P80
G1 X31.000 Y38.175 F600.000
G1 X31.000 Y38.525 F600.000
G1 X24.000 Y38.525 F600.000
G1 X24.000 Y38.875 F600.000
G1 X31.000 Y38.875 F600.000
G1 X24.500 Y38.875 F600.000
G1 X24.500 Y39.175 F600.000
G1 X24.000 Y39.175 F600.000
G1 X25.000 Y39.175 F600.000
G1 X25.000 Y39.525 F600.000
G1 X24.000 Y39.525 F600.000
G1 X24.000 Y39.875 F600.000
G1 X25.000 Y39.875 F600.000
G1 X24.500 Y39.875 F600.000
G1 X24.500 Y40.175 F600.000
G1 X24.000 Y40.175 F600.000
G1 X25.000 Y40.175 F600.000
G1 X25.000 Y40.525 F600.000
G1 X24.000 Y40.525 F600.000
G1 X24.000 Y40.875 F600.000
G1 X25.000 Y40.875 F600.000
G1 X24.500 Y40.875 F600.000
G1 X24.500 Y41.175 F600.000
G1 X24.000 Y41.175 F600.000
G1 X25.000 Y41.175 F600.000
G1 X25.000 Y41.525 F600.000
G1 X24.000 Y41.525 F600.000
G1 X24.000 Y41.875 F600.000
G1 X25.000 Y41.875 F600.000
G1 X24.500 Y41.875 F600.000
G1 X24.500 Y42.175 F600.000
G1 X24.000 Y42.175 F600.000
G1 X25.000 Y42.175 F600.000
G1 X25.000 Y42.525 F600.000
G1 X24.000 Y42.525 F600.000
G1 X24.000 Y42.875 F600.000
G1 X25.000 Y42.875 F600.000
G1 X24.500 Y42.875 F600.000
G1 X24.500 Y43.175 F600.000
G1 X24.000 Y43.175 F600.000
G1 X25.000 Y43.175 F600.000
G1 X25.000 Y43.525 F600.000
G1 X24.000 Y43.525 F600.000
G1 X24.000 Y43.875 F600.000
G1 X25.000 Y43.875 F600.000
G1 X24.500 Y43.875 F600.000
G1 X24.500 Y44.175 F600.000
G1 X24.000 Y44.175 F600.000
G1 X31.000 Y44.175 F600.000
G1 X31.000 Y44.525 F600.000
G1 X24.000 Y44.525 F600.000
G1 X24.000 Y44.875 F600.000
G1 X31.000 Y44.875 F600.000
G1 X30.500 Y44.875 F600.000
G1 X30.500 Y43.175 F600.000
G1 X30.000 Y43.175 F600.000
G1 X31.000 Y43.175 F600.000
G1 X31.000 Y43.525 F600.000
G1 X30.000 Y43.525 F600.000
G1 X30.000 Y43.875 F600.000
G1 X31.000 Y43.875 F600.000
G1 X30.500 Y43.875 F600.000
G1 X30.500 Y42.175 F600.000
G1 X30.000 Y42.175 F600.000
G1 X31.000 Y42.175 F600.000
G1 X31.000 Y42.525 F600.000
G1 X30.000 Y42.525 F600.000
G1 X30.000 Y42.875 F600.000
G1 X31.000 Y42.875 F600.000
G1 X30.500 Y42.875 F600.000
G1 X30.500 Y41.175 F600.000
G1 X30.000 Y41.175 F600.000
G1 X31.000 Y41.175 F600.000
G1 X31.000 Y41.525 F600.000
G1 X30.000 Y41.525 F600.000
G1 X30.000 Y41.875 F600.000
G1 X31.000 Y41.875 F600.000
G1 X30.500 Y41.875 F600.000
G1 X30.500 Y40.175 F600.000
G1 X30.000 Y40.175 F600.000
G1 X31.000 Y40.175 F600.000
G1 X31.000 Y40.525 F600.000
G1 X30.000 Y40.525 F600.000
G1 X30.000 Y40.875 F600.000
G1 X31.000 Y40.875 F600.000
G1 X30.500 Y40.875 F600.000
G1 X30.500 Y39.175 F600.000
G1 X30.000 Y39.175 F600.000
G1 X31.000 Y39.175 F600.000
G1 X31.000 Y39.525 F600.000
G1 X30.000 Y39.525 F600.000
G1 X30.000 Y39.875 F600.000
G1 X31.000 Y39.875 F600.000
G1 X30.500 Y39.875 F600.000
G1 X30.500 Y40.875 F600.000
G1 X30.500 Y41.875 F600.000
G1 X30.500 Y42.875 F600.000
G1 X30.500 Y43.875 F600.000
G1 X30.500 Y44.875 F600.000
G1 X24.500 Y44.875 F600.000
G1 X24.500 Y43.875 F600.000
G1 X24.500 Y42.875 F600.000
G1 X24.500 Y41.875 F600.000
G1 X24.500 Y40.875 F600.000
G1 X24.500 Y39.875 F600.000
G1 X24.500 Y38.875 F600.000
M5
G4 P80
G0 X37.000 Y38.175 F900.000
M3
G4 P80
G1 X38.000 Y38.175 F600.000
G1 X38.000 Y38.525 F600.000
G1 X37.000 Y38.525 F600.000
G1 X37.000 Y38.875 F600.000
G1 X38.000 Y38.875 F600.000
M5
G4 P80
G0 X38.000 Y39.175 F900.000
M3
G4 P80
G1 X39.000 Y39.175 F600.000
G1 X39.000 Y39.525 F600.000
G1 X38.000 Y39.525 F600.000
G1 X38.000 Y39.875 F600.000
G1 X39.000 Y39.875 F600.000
M5
G4 P80
G0 X26.000 Y40.175 F900.000
M3
G4 P80
G1 X29.000 Y40.175 F600.000
G1 X29.000 Y40.525 F600.000
G1 X26.000 Y40.525 F600.000
G1 X26.000 Y40.875 F600.000
G1 X29.000 Y40.875 F600.000
G1 X27.500 Y40.875 F600.000
G1 X27.500 Y41.175 F600.000
G1 X26.000 Y41.175 F600.000
G1 X29.000 Y41.175 F600.000
G1 X29.000 Y41.525 F600.000
G1 X26.000 Y41.525 F600.000
G1 X26.000 Y41.875 F600.000
G1 X29.000 Y41.875 F600.000
G1 X27.500 Y41.875 F600.000
G1 X27.500 Y42.175 F600.000
G1 X26.000 Y42.175 F600.000
G1 X29.000 Y42.175 F600.000
G1 X29.000 Y42.525 F600.000
G1 X26.000 Y42.525 F600.000
G1 X26.000 Y42.875 F600.000
G1 X29.000 Y42.875 F600.000
G1 X27.500 Y42.875 F600.000
G1 X27.500 Y41.875 F600.000
G1 X27.500 Y40.875 F600.000
M5
G4 P80
G0 X43.000 Y42.175 F900.000
M3
G4 P80
G1 X45.000 Y42.175 F600.000
G1 X45.000 Y42.525 F600.000
G1 X43.000 Y42.525 F600.000
G1 X43.000 Y42.875 F600.000
G1 X45.000 Y42.875 F600.000
M5
G4 P80
G0 X32.000 Y44.175 F900.000
M3
G4 P80
G1 X33.000 Y44.175 F600.000
G1 X33.000 Y44.525 F600.000
G1 X32.000 Y44.525 F600.000
G1 X32.000 Y44.875 F600.000
G1 X33.000 Y44.875 F600.000
M5
G4 P80
G0 X42.000 Y44.175 F900.000
M3
G4 P80
G1 X44.000 Y44.175 F600.000
G1 X44.000 Y44.525 F600.000
G1 X42.000 Y44.525 F600.000
G1 X42.000 Y44.875 F600.000
G1 X44.000 Y44.875 F600.000
M5
G4 P80
M5
M5